COD_LOCAL;PROVINCIA;MUNICIPIO;ESTACION;COD_ESTACION_DEM;N_RED;NOMBRE;FECHA_INI;FECHA_FIN;LONGITUD_G;LATITUD_G;ALTITUD;N_CCAA;N_PROVINCIA;N_MUNICIPIO;TIPO_ESTACION;TIPO_AREA;TIPO_SUBAREA_RURAL;EST;ZONA;DIRECCION
4022001;4;22;1;ES1996A;CCAA Andalucía;BÉDAR;10/02/2011;;-1.9854;37.19342;380;ANDALUCÍA;ALMERÍA;BÉDAR;FONDO;RURAL;;UF;RESIDENCIAL;PARQUE EUROPA ,TXURDINAGA (BILBAO)
4024001;4;24;1;ES1785A;CCAA Andalucía;BENAHADUX;11/07/2005;;-2.46322;36.9231;148;ANDALUCÍA;ALMERÍA;BENAHADUX;INDUSTRIAL;URBANA;CERCA DE UNA CIUDAD;RF;RESIDENCIAL/COMERCIAL/INDUSTRIAL;RESERVA DEL URDAIBAI
4066004;4;66;4;ES0625A;CCAA Andalucía;CAMPOHERMOSO;01/01/1985;13/07/2015;-2.12819;36.93385;152;ANDALUCÍA;ALMERÍA;NÍJAR;INDUSTRIAL;SUBURBANA;;UI;RESIDENCIAL/INDUSTRIAL;C/SAN ROQUE  20,BAJO (DURANGO)
4032002;4;32;2;ES0620A;CCAA Andalucía;CARBONERAS;01/01/1985;22/07/2015;-1.89201;36.99945;11;ANDALUCÍA;ALMERÍA;CARBONERAS;INDUSTRIAL;URBANA;;ST;RESIDENCIAL;C/GABRIEL CELAYA 8, ELCIEGO
4013005;4;13;5;ES1786A;CCAA Andalucía;EL BOTICARIO;08/06/2005;;-2.3905;36.86495;55;ANDALUCÍA;ALMERÍA;ALMERÍA;FONDO;SUBURBANA;REGIONAL;RI;AGRICOLA/NATURALEZA;LUGAR DE FRAGA REDONDA, AS PONTES
4902001;4;902;1;ES1549A;CCAA Andalucía;EL EJIDO;23/06/2000;;-2.81097;36.76972;97;ANDALUCÍA;ALMERÍA;EJIDO (EL);FONDO;URBANA;REGIONAL;RI;MONTAÑA;CTRA. MURAS A SANTA Mª DE AMBOSORES
4066008;4;66;8;ES2026A;CCAA Andalucía;FERNÁN PÉREZ;28/05/2012;;-2.04672;36.8951;239;ANDALUCÍA;ALMERÍA;NÍJAR;INDUSTRIAL;RURAL;;SI;RESIDENCIAL/COMERCIAL/INDUSTRIAL;RUA MAÑÓN (RESIDENCIA ENDESA)
4066007;4;66;7;ES1835A;CCAA Andalucía;LA JOYA;22/05/2006;;-1.96148;36.95;51;ANDALUCÍA;ALMERÍA;NÍJAR;INDUSTRIAL;RURAL;REGIONAL;RI;NATURALEZA;PARROQUIA DE SAN XIAO DE MOURENCE, VILALBA
4013004;4;13;4;ES1393A;CCAA Andalucía;MEDITERRÁNEO;01/10/1994;;-2.44672;36.84133;51;ANDALUCÍA;ALMERÍA;ALMERÍA;TRAFICO;URBANA;REMOTA;RFREM;AGRICOLA;PARROQUIA DE BUGALLA, MONTE A TRAVESA
4064001;4;64;1;ES2040A;CCAA Andalucía;MOJÁCAR;01/08/2013;;-1.8422;37.1388;76;ANDALUCÍA;ALMERÍA;MOJÁCAR;FONDO;RURAL;DESCONOCIDO;SF;MAR(CERCA);INSTITUTO ANXEL CASAL, CALLE LAGOAS
4035002;4;35;2;ES1547A;CCAA Andalucía;PALOMARES;01/09/2000;;-1.78174;37.25497;11;ANDALUCÍA;ALMERÍA;CUEVAS DEL ALMANZORA;INDUSTRIAL;RURAL;DESCONOCIDO;SF;MONTAÑA;CENTRO DE INNOVACIÓN E SERVIZOS DE GALICIA, A CABANA
4032005;4;32;5;ES1845A;CCAA Andalucía;PZA. DEL CASTILLO;20/07/2005;;-1.89535;36.99678;5;ANDALUCÍA;ALMERÍA;CARBONERAS;INDUSTRIAL;URBANA;;UF;PARQUE;C/ JOSÉ MARÍA NUÑEZ S/N DETRÁS FACULTAD FÍSICAS
4066003;4;66;3;ES0624A;CCAA Andalucía;RODALQUILAR;01/01/1985;;-2.03819;36.84745;50;ANDALUCÍA;ALMERÍA;NÍJAR;INDUSTRIAL;SUBURBANA;;UT;RESIDENCIAL/COMERCIAL;AVENIDA DE FINGOY, S/N
4035001;4;35;1;ES1546A;CCAA Andalucía;VILLARICOS;01/01/2000;;-1.77083;37.25223;16;ANDALUCÍA;ALMERÍA;CUEVAS DEL ALMANZORA;INDUSTRIAL;SUBURBANA;;UT;RESIDENCIAL/COMERCIAL/INDUSTRIAL;CARRETERA DE MOLLABAO, S/N
11003001;11;3;1;ES1875A;CCAA Andalucía;ALGAR;19/04/2005;;-5.6614;36.64963;207;ANDALUCÍA;CÁDIZ;ALGAR;INDUSTRIAL;SUBURBANA;REGIONAL;RF;NATURALEZA;AS EIRAS, S/N
11004007;11;4;7;ES1664A;CCAA Andalucía;ALGECIRAS EPS;28/07/2003;;-5.45343;36.13623;24;ANDALUCÍA;CÁDIZ;ALGECIRAS;INDUSTRIAL;URBANA;;SI;RESIDENCIAL/INDUSTRIAL;TF-64. (AVDA DE GONZALO FUNDADOR GONZÁLEZ SN. (CENTRO DE SALUD)
11006001;11;6;1;ES1821A;CCAA Andalucía;ARCOS;01/10/2004;;-5.74372;36.73975;216;ANDALUCÍA;CÁDIZ;ARCOS DE LA FRONTERA;INDUSTRIAL;SUBURBANA;;UI;RESIDENCIAL/INDUSTRIAL;C/ BRASIL ESQ C/ ARGENTINA
11012002;11;12;2;ES1479A;CCAA Andalucía;AVDA. MARCONI;01/11/1997;;-6.26857;36.50602;4;ANDALUCÍA;CÁDIZ;CÁDIZ;TRAFICO;URBANA;;SI;RESIDENCIAL/INDUSTRIAL;TF - 252. CENTRO DE SALUD
11033005;11;33;5;ES0556A;CCAA Andalucía;CAMPAMENTO;01/01/1984;;-5.37697;36.17943;9;ANDALUCÍA;CÁDIZ;SAN ROQUE;INDUSTRIAL;SUBURBANA;;SF;RESIDENCIAL;C/ ADOBE (COLEGIO LA BUZANADA)
11033004;11;33;4;ES1169A;CCAA Andalucía;CARTEYA (S9);01/01/1992;;-5.39138;36.20879;51;ANDALUCÍA;CÁDIZ;SAN ROQUE;INDUSTRIAL;SUBURBANA;;SI;RESIDENCIAL/INDUSTRIAL;TF - 254. C/ EL TOSTÓN.
11020003;11;20;3;ES1620A;CCAA Andalucía;CARTUJA;17/02/2002;;-6.11449;36.66086;49;ANDALUCÍA;CÁDIZ;JEREZ DE LA FRONTERA;INDUSTRIAL;SUBURBANA;;UI;RESIDENCIAL/COMERCIAL/INDUSTRIAL;AVDA JOAN Y VICTOR JARA, FRENTE A URBANIZACIÓN JINÁMAR 3ª FASE
11008003;11;8;3;ES0629A;CCAA Andalucía;COLEGIO (S1);01/01/1985;;-5.48893;36.18562;30;ANDALUCÍA;CÁDIZ;BARRIOS (LOS);INDUSTRIAL;URBANA;;UI;RESIDENCIAL/INDUSTRIAL;C/ ALMIRANTE LALLERMAND, 30 (CENTRO DE ARTE JUAN ISMAEL-SOBRE AZOTEA)
11008008;11;8;8;ES1076A;CCAA Andalucía;CORTIJILLOS;01/01/1991;;-5.43576;36.19048;26;ANDALUCÍA;CÁDIZ;BARRIOS (LOS);INDUSTRIAL;SUBURBANA;;UI;PARQUE;PARQUE DE LA PIEDRA S/N
11008009;11;8;9;ES1648A;CCAA Andalucía;E2: ALCORNOCALES;28/01/2003;;-5.6635;36.23386;189;ANDALUCÍA;CÁDIZ;BARRIOS (LOS);FONDO;RURAL;;UF;RESIDENCIAL/COMERCIAL;AVDA. ALCALDE GINÉS DE LA HOZ
11004006;11;4;6;ES1637A;CCAA Andalucía;E4:RINCONCILLO;13/09/2002;;-5.44255;36.16174;1;ANDALUCÍA;CÁDIZ;ALGECIRAS;INDUSTRIAL;URBANA;;UI;RESIDENCIAL/COMERCIAL/INDUSTRIAL;INSTALACIONES DEPORTIVAS EL CHARCO, CALLE LA PESCA, PTO DEL ROSARIO 
11022007;11;22;7;ES1634A;CCAA Andalucía;E7:EL ZABAL;03/06/2002;;-5.34194;36.17315;8;ANDALUCÍA;CÁDIZ;LÍNEA DE LA CONCEPCIÓN (LA);FONDO;URBANA;;SF;RESIDENCIAL/AGRICOLA;C/ CUESTA DE SAN JOSÉ S/N. SAN ANTONIO
11033006;11;33;6;ES0557A;CCAA Andalucía;ECONOMATO;01/01/1984;;-5.38081;36.18621;15;ANDALUCÍA;CÁDIZ;SAN ROQUE;INDUSTRIAL;RURAL;;UI;RESIDENCIAL;C/ EL PILAR
11033007;11;33;7;ES0893A;CCAA Andalucía;GUADARRANQUE;01/01/1989;;-5.41141;36.1821;2;ANDALUCÍA;CÁDIZ;SAN ROQUE;INDUSTRIAL;URBANA;;UT;RESIDENCIAL/COMERCIAL/INDUSTRIAL;GC - 500 (FRENTE A CLÍNICA ROCA)
11033009;11;33;9;ES1074A;CCAA Andalucía;HOSTELERÍA;01/01/1991;;-5.38371;36.20388;51;ANDALUCÍA;CÁDIZ;SAN ROQUE;TRAFICO;SUBURBANA;REGIONAL;RI;AGRICOLA/NATURALEZA;CENTRO DE MENORES. PLAYA DEL CABRÓN.
11006002;11;6;2;ES1876A;CCAA Andalucía;JEDULA;19/04/2005;;-5.92108;36.7417;47;ANDALUCÍA;CÁDIZ;ARCOS DE LA FRONTERA;INDUSTRIAL;RURAL;;UI;RESIDENCIAL/INDUSTRIAL;C/ VERTEGUI. CP PANCHO GUERRA 
11020004;11;20;4;ES1781A;CCAA Andalucía;JEREZ-CHAPMN;04/11/2004;;-6.11724;36.68855;62;ANDALUCÍA;CÁDIZ;JEREZ DE LA FRONTERA;FONDO;URBANA;;UI;RESIDENCIAL/COMERCIAL;AV DE ÁNGEL ROMERO
11022005;11;22;5;ES1072A;CCAA Andalucía;LA LÍNEA;01/01/1991;;-5.34836;36.15937;1;ANDALUCÍA;CÁDIZ;LÍNEA DE LA CONCEPCIÓN (LA);INDUSTRIAL;URBANA;;UI;RESIDENCIAL/INDUSTRIAL;AVDA. BENITO PÉREZ ARMAS S/N
11008001;11;8;1;ES0712A;CCAA Andalucía;LOS BARRIOS;01/01/1986;;-5.48083;36.17538;45;ANDALUCÍA;CÁDIZ;BARRIOS (LOS);INDUSTRIAL;SUBURBANA;;UI;RESIDENCIAL/INDUSTRIAL;C/JOSE ESPINOSA CANBRELENG 
11033008;11;33;8;ES0894A;CCAA Andalucía;MADREVIEJA;01/01/1989;;-5.40471;36.20442;23;ANDALUCÍA;CÁDIZ;SAN ROQUE;INDUSTRIAL;RURAL;;UI;RESIDENCIAL/COMERCIAL;PARQUE LA GRANJA, AVDA. MADRID-AVDA. BÉLGICA
11008006;11;8;6;ES0633A;CCAA Andalucía;PALMONES (S5);01/01/1985;;-5.43277;36.1747;1;ANDALUCÍA;CÁDIZ;BARRIOS (LOS);INDUSTRIAL;URBANA;;UI;RESIDENCIAL/COMERCIAL/INDUSTRIAL;C/GANIVET S/N 
11026001;11;26;1;ES1822A;CCAA Andalucía;PRADO REY;15/02/2005;;-5.53162;36.79449;390;ANDALUCÍA;CÁDIZ;PRADO DEL REY;INDUSTRIAL;RURAL;;UI;RESIDENCIAL/COMERCIAL/INDUSTRIAL;C/ HELIODORO RODRÍGUEZ LÓPEZ
11033010;11;33;10;ES1925A;CCAA Andalucía;PUENTE MAYORGA;01/01/2009;;-5.3825;36.1801;3;ANDALUCÍA;CÁDIZ;SAN ROQUE;INDUSTRIAL;URBANA;;SF;AGRICOLA;CENTRO SOCIOCULTURAL ECHEDO
11028001;11;28;1;ES1516A;CCAA Andalucía;RIO SAN PEDRO;01/05/1998;;-6.22517;36.52283;1;ANDALUCÍA;CÁDIZ;PUERTO REAL;FONDO;URBANA;;UF;RESIDENCIAL/COMERCIAL;COLEGIO LUIS ALVAREZ CRUZ (INMEDIACIONES C/ VILLAMAR)
11031001;11;31;1;ES1593A;CCAA Andalucía;SAN FERNANDO;01/03/2001;;-6.20307;36.46059;35;ANDALUCÍA;CÁDIZ;SAN FERNANDO;FONDO;SUBURBANA;;UF;RESIDENCIAL/COMERCIAL;PARQUE DE LOS PRINCIPES
11033003;11;33;3;ES0634A;CCAA Andalucía;SAN ROQUE (S6);01/01/1985;;-5.43027;36.21204;32;ANDALUCÍA;CÁDIZ;SAN ROQUE;INDUSTRIAL;SUBURBANA;;UT;RESIDENCIAL/COMERCIAL;C/ CÁDIZ, 2 (ESTACIÓN DE AUTOBUSES)
14021006;14;21;6;ES1800A;CCAA Andalucía;ASOMADILLA;29/06/2005;;-4.77958;37.90274;152;ANDALUCÍA;CÓRDOBA;CÓRDOBA;FONDO;SUBURBANA;;UF;RESIDENCIAL;C/ LUCIO MEDIAVILLA (PARQUE DEL ZAPATÓN)
14021009;14;21;9;ES2047A;CCAA Andalucía;AVDA. AL-NASIR;01/01/2013;;-4.7801;37.8926;125;ANDALUCÍA;CÓRDOBA;CÓRDOBA;TRAFICO;URBANA;;UF;RESIDENCIAL/INDUSTRIAL;C/ TORRES QUEVEDO 14, C/ LA HOYA 21
14021007;14;21;7;ES1799A;CCAA Andalucía;LEPANTO;07/09/2005;;-4.76234;37.89261;119;ANDALUCÍA;CÓRDOBA;CÓRDOBA;FONDO;URBANA;;UF;RESIDENCIAL/COMERCIAL/INDUSTRIAL;C/ FAROLILLO 
14047001;14;47;1;ES1972A;CCAA Andalucía;OBEJO;07/05/2010;;-4.80173;38.13246;685;ANDALUCÍA;CÓRDOBA;OBEJO;INDUSTRIAL;SUBURBANA;;SF;RESIDENCIAL;CASA DE CAMPO, TELEFÉRICO
14021008;14;21;8;ES1993A;CCAA Andalucía;PARQUE JOYERO;01/01/2010;;-4.81583;37.87522;119;ANDALUCÍA;CÓRDOBA;CÓRDOBA;INDUSTRIAL;SUBURBANA;;UF;RESIDENCIAL;C/JUAN DE MARIANA - PZA.AMANECER M.A.
14026002;14;26;2;ES0926A;CCAA Andalucía;POBLADO;01/01/1990;;-4.9268;38.10814;432;ANDALUCÍA;CÓRDOBA;ESPIEL;INDUSTRIAL;RURAL;;UT;RESIDENCIAL;PLAZA DE CASTILLA
14068001;14;68;1;ES1971A;CCAA Andalucía;VILLAHARTA;01/01/2010;;-4.90397;38.13793;571;ANDALUCÍA;CÓRDOBA;VILLAHARTA;INDUSTRIAL;SUBURBANA;;UF;RESIDENCIAL;PLAZA TRES OLIVOS
18021001;18;21;1;ES1973A;CCAA Andalucía; CIUDAD DEPORTIVA;07/03/2010;;-3.61925;37.13556;684;ANDALUCÍA;GRANADA;ARMILLA;FONDO;URBANA;REMOTA;RFREM;NATURALEZA;INSTALACIONES DEL FARO DE CABO CREUS
18087007;18;87;7;ES1560A;CCAA Andalucía;GRANADA - NORTE;01/02/2000;;-3.61266;37.1961;689;ANDALUCÍA;GRANADA;GRANADA;TRAFICO;URBANA;;UF;RESIDENCIAL;AV. DE MARTÍ CODOLAR
18087010;18;87;10;ES1924A;CCAA Andalucía;PALACIO CONGRESOS;17/06/2009;;-3.6001;37.16568;666;ANDALUCÍA;GRANADA;GRANADA;FONDO;URBANA;;UT;RESIDENCIAL;C. DEL BISBE IRURITA - C. DE PIUS XII
18189999;18;189;999;ES0007R;EMEP/VAG/CAMP;VÍZNAR;01/11/1995;;-3.53417;37.23722;1230;ANDALUCÍA;GRANADA;VÍZNAR;FONDO;RURAL;CERCA DE UNA CIUDAD;RI;INDUSTRIAL;C. MAJOR
21041017;21;41;17;ES1658A;CCAA Andalucía;CAMPUS DEL CARMEN;22/05/2003;;-6.92462;37.27148;48;ANDALUCÍA;HUELVA;HUELVA;INDUSTRIAL;URBANA;;UI;PARQUE;COLEGIO PÚBLICO HERMANOS OCHANDO. C/BENASSAL, S/N
21021001;21;21;1;ES1794A;CCAA Andalucía;CARTAYA;25/09/2003;21/04/2015;-7.15018;37.30464;39;ANDALUCÍA;HUELVA;CARTAYA;FONDO;RURAL;CERCA DE UNA CIUDAD;RF;NATURALEZA;JUNTO DEPÓSITO MUNICIPAL DE AGUAS 
21005999;21;5;999;ES0017R;EMEP/VAG/CAMP;DOÑANA;03/10/2007;;-6.55528;37.05194;5;ANDALUCÍA;HUELVA;ALMONTE;FONDO;RURAL;;SI;INDUSTRIAL;POLIDEPORTIVO DE ALBALAT DELS TARONGERS
21050002;21;50;2;ES1793A;CCAA Andalucía;EL ARENOSILLO;03/02/2004;;-6.73408;37.10409;31;ANDALUCÍA;HUELVA;MOGUER;FONDO;RURAL;;SF;RESIDENCIAL;POLIDEPORTIVO MUNICIPAL, AVD. POLIDEPORTIVO, 11
21041008;21;41;8;ES0822A;CCAA Andalucía;LA ORDEN;01/01/1980;;-6.93807;37.27964;66;ANDALUCÍA;HUELVA;HUELVA;INDUSTRIAL;URBANA;;SF;RESIDENCIAL;CARRETERA CV-550 KM. 6,2
21055004;21;55;4;ES0892A;CCAA Andalucía;LA RÁBIDA;01/01/1989;;-6.92027;37.19977;8;ANDALUCÍA;HUELVA;PALOS DE LA FRONTERA;INDUSTRIAL;SUBURBANA;REMOTA;RFREM;NATURALEZA;CERRO GORDO
21041010;21;41;10;ES1256A;CCAA Andalucía;LOS ROSALES;01/08/1992;;-6.92546;37.26016;23;ANDALUCÍA;HUELVA;HUELVA;INDUSTRIAL;URBANA;;UF;RESIDENCIAL;PLAZA CICLISTA BLAI DOMINGO MIÑÓ
21041015;21;41;15;ES1328A;CCAA Andalucía;MARISMAS DEL TITÁN;07/05/1993;;-6.94219;37.25258;17;ANDALUCÍA;HUELVA;HUELVA;INDUSTRIAL;URBANA;;SF;AGRICOLA; JUNTO ERMITA MORERA (STA.MARIA) CTRA. ONTINYENT-FONTANARES
21005002;21;5;2;ES1878A;CCAA Andalucía;MATALASCAÑAS;31/01/2007;;-6.57042;37.0161;22;ANDALUCÍA;HUELVA;ALMONTE;FONDO;RURAL;;UT;RESIDENCIAL/COMERCIAL;CTRA.TORREVIEJA A CREVILLENTE S/N, (CENTRAL POLICIA LOCAL DE TORREVIEJA)
21050003;21;50;3;ES1792A;CCAA Andalucía;MAZAGON;21/01/2005;;-6.80745;37.13379;31;ANDALUCÍA;HUELVA;MOGUER;INDUSTRIAL;SUBURBANA;;SF;INDUSTRIAL;POLÍGONO LACY, AVDA.SAN LUIS DE CUBA S/N
21050001;21;50;1;ES1258A;CCAA Andalucía;MOGUER;01/08/1992;;-6.83384;37.28156;52;ANDALUCÍA;HUELVA;MOGUER;INDUSTRIAL;SUBURBANA;;SI;RESIDENCIAL/INDUSTRIAL;CAMINO HONDO AL GRAU, S/N
21055005;21;55;5;ES1067A;CCAA Andalucía;PALOS;01/01/1991;;-6.88858;37.21925;28;ANDALUCÍA;HUELVA;PALOS DE LA FRONTERA;INDUSTRIAL;SUBURBANA;;UT;RESIDENCIAL;C/COLUMBRETES N:22
21041016;21;41;16;ES1340A;CCAA Andalucía;POZO DULCE;30/01/1993;;-6.93514;37.25336;18;ANDALUCÍA;HUELVA;HUELVA;INDUSTRIAL;URBANA;;UF;RESIDENCIAL;JARDINES DE VIVEROS
21060002;21;60;2;ES0823A;CCAA Andalucía;PUNTA UMBRÍA;01/01/1988;;-6.96414;37.18568;1;ANDALUCÍA;HUELVA;PUNTA UMBRÍA;INDUSTRIAL;URBANA;;UT;RESIDENCIAL/COMERCIAL;C/ PADRE ESPLÁ - JUNTO Nº 70
21064002;21;64;2;ES0827A;CCAA Andalucía;SAN JUÁN DEL PUERTO;01/01/1988;;-6.84463;37.3154;23;ANDALUCÍA;HUELVA;SAN JUAN DEL PUERTO;INDUSTRIAL;URBANA;;UF;RESIDENCIAL;C/PIANISTA GONZALO SORIANO S/N (PABELLÓN MUNICIPAL FLORIDA BABEL)
21055007;21;55;7;ES0787A;CCAA Andalucía;TORREARENILLA;01/01/1987;;-6.90453;37.19033;13;ANDALUCÍA;HUELVA;PALOS DE LA FRONTERA;INDUSTRIAL;SUBURBANA;;UT;RESIDENCIAL/COMERCIAL;TIRANT LO BLANC, 2
21072001;21;72;1;ES1791A;CCAA Andalucía;VALVERDE;01/09/2003;20/04/2015;-6.75555;37.57978;220;ANDALUCÍA;HUELVA;VALVERDE DEL CAMINO;FONDO;SUBURBANA;CERCA DE UNA CIUDAD;RI;AGRICOLA;CARRETERA CV 11, PK 19.550
23010002;23;10;2;ES1253A;CCAA Andalucía;BAILÉN;01/08/1992;;-3.78392;38.09293;368;ANDALUCÍA;JAÉN;BAILÉN;INDUSTRIAL;URBANA;;RI;NATURALEZA;
23050004;23;50;4;ES1824A;CCAA Andalucía;LAS FUENTEZUELAS;23/02/2006;;-3.81032;37.78444;376;ANDALUCÍA;JAÉN;JAÉN;FONDO;SUBURBANA;REGIONAL;RF;NATURALEZA;MONTE MAS DEL ALJUB
23050003;23;50;3;ES1656A;CCAA Andalucía;RONDA DEL VALLE;27/04/2003;;-3.78157;37.78255;480;ANDALUCÍA;JAÉN;JAÉN;FONDO;URBANA;;SI;RESIDENCIAL/COMERCIAL/INDUSTRIAL;ERMITA DE SAN JAUME DE FADREL
23097001;23;97;1;ES1718A;CCAA Andalucía;VILLANUEVA DEL ARZOBISPO;19/01/2004;;-3.01022;38.16943;692;ANDALUCÍA;JAÉN;VILLANUEVA DEL ARZOBISPO;INDUSTRIAL;URBANA;;UI;RESIDENCIAL/INDUSTRIAL;POLIDEPORTIVO MUNICIPAL CALLE CONCORDIA S/N
29067008;29;67;8;ES2031A;CCAA Andalucía;AVENIDA JUAN XXIII;01/12/2012;;-4.446;36.7073;380;ANDALUCÍA;MÁLAGA;MÁLAGA;TRAFICO;URBANA;;RF;;OBSERVATORI ASTRONÒMIC DEL MONTSEC
29067007;29;67;7;ES1897A;CCAA Andalucía;CAMPANILLAS CIFA;01/08/2008;;-4.56095;36.72785;55;ANDALUCÍA;MÁLAGA;MÁLAGA;INDUSTRIAL;SUBURBANA;;SI;RESIDENCIAL/COMERCIAL/INDUSTRIAL;PL. DE LLUÍS COMPANYS
29032001;29;32;1;ES1898A;CCAA Andalucía;CAMPILLOS;01/08/2008;;-4.84483;36.9623;359;ANDALUCÍA;MÁLAGA;CAMPILLOS;FONDO;RURAL;;SF;RESIDENCIAL;C. DE LES PILES, 79
29067006;29;67;6;ES1750A;CCAA Andalucía;CARRANQUE;24/06/2005;;-4.4475;36.71964;36;ANDALUCÍA;MÁLAGA;MÁLAGA;FONDO;URBANA;;UT;RESIDENCIAL/COMERCIAL;C. DE LOPE DE VEGA - C. DE PUJADES 
29067005;29;67;5;ES1751A;CCAA Andalucía;EL ATABAL;07/06/2004;;-4.46553;36.72956;86;ANDALUCÍA;MÁLAGA;MÁLAGA;FONDO;SUBURBANA;;SI;RESIDENCIAL/COMERCIAL/INDUSTRIAL;MOLL DE PESCADORS
29069002;29;69;2;ES2030A;CCAA Andalucía;MARBELLA ARCO;30/10/2012;;-4.863;36.511;39;ANDALUCÍA;MÁLAGA;MARBELLA;TRAFICO;URBANA;;UF;;PARC DE LA CIUTADELLA
41004006;41;4;6;ES1640A;CCAA Andalucía;ALCALÁ DE GUADAIRA;27/09/2002;;-5.83372;37.34246;68;ANDALUCÍA;SEVILLA;ALCALÁ DE GUADAIRA;FONDO;URBANA;;UF;RESIDENCIAL;AV. D'EN CARITG, S/N
41059001;41;59;1;ES1630A;CCAA Andalucía;ALJARAFE;04/04/2002;;-6.04246;37.34075;50;ANDALUCÍA;SEVILLA;MAIRENA DEL ALJARAFE;FONDO;SUBURBANA;;ST;RESIDENCIAL/COMERCIAL/INDUSTRIAL;C.  TARRAGONA, 16
41091018;41;91;18;ES1638A;CCAA Andalucía;BERMEJALES;13/09/2002;;-5.97963;37.34719;26;ANDALUCÍA;SEVILLA;SEVILLA;FONDO;URBANA;CERCA DE UNA CIUDAD;SI;RESIDENCIAL;C/ DE LES ROSES, 113
41091019;41;91;19;ES1644A;CCAA Andalucía;CENTRO;28/10/2002;;-5.99149;37.38808;19;ANDALUCÍA;SEVILLA;SEVILLA;FONDO;URBANA;;UT;;CSIC -IDAEA C/JORDI GIRONA - C/TINENT CORONEL VALENZUELA
41049001;41;49;1;ES1860A;CCAA Andalucía;COBRE LAS CRUCES;09/10/2007;;-6.03616;37.55502;1;ANDALUCÍA;SEVILLA;GUILLENA;INDUSTRIAL;RURAL;;UI;INDUSTRIAL;C. DE LA SOCIETAT, 26
41038001;41;38;1;ES1653A;CCAA Andalucía;DOS HERMANAS;26/02/2003;;-5.91384;37.28449;49;ANDALUCÍA;SEVILLA;DOS HERMANAS;FONDO;URBANA;;UT;RESIDENCIAL/COMERCIAL;RAMBLETA DEL PARE ALEGRE, S/N
41091010;41;91;10;ES0817A;CCAA Andalucía;LA RANILLA;01/01/1988;;-5.95962;37.38425;29;ANDALUCÍA;SEVILLA;SEVILLA;TRAFICO;URBANA;;SI;RESIDENCIAL/COMERCIAL/INDUSTRIAL;C. DE FÈLIX DURAN CANYAMERES - C. DE SANT ANTONI MA. CLARET
41091016;41;91;16;ES1425A;CCAA Andalucía;PRINCIPES;29/08/1995;;-6.00558;37.37525;9;ANDALUCÍA;SEVILLA;SEVILLA;FONDO;URBANA;;UF;RESIDENCIAL;PARC DE SANT FRANCESC
41091017;41;91;17;ES1519A;CCAA Andalucía;SAN JERÓNIMO;01/01/1980;;-5.98039;37.42986;21;ANDALUCÍA;SEVILLA;SEVILLA;INDUSTRIAL;SUBURBANA;;UF;RESIDENCIAL/COMERCIAL;C. DE CALDERON, 56
41091015;41;91;15;ES1450A;CCAA Andalucía;SANTA CLARA;30/06/1996;;-5.95165;37.39831;29;ANDALUCÍA;SEVILLA;SEVILLA;FONDO;SUBURBANA;;SI;RESIDENCIAL/INDUSTRIAL;C. DEL REIXAGÓ, 5
41088001;41;88;1;ES1654A;CCAA Andalucía;SIERRA NORTE;18/03/2003;;-5.66687;37.99435;573;ANDALUCÍA;SEVILLA;SAN NICOLÁS DEL PUERTO;FONDO;RURAL;;SI;RESIDENCIAL/INDUSTRIAL;C/ ROCA DE VILANA (BARRI LA MAGINA)
41091009;41;91;9;ES0890A;CCAA Andalucía;TORNEO;01/01/1988;;-6.0031;37.39452;17;ANDALUCÍA;SEVILLA;SEVILLA;TRAFICO;URBANA;;UF;RESIDENCIAL/INDUSTRIAL;AJUNTAMENT
22125001;22;125;1;ES1417A;CCAA Aragón;HUESCA;01/06/1995;;-0.40389;42.13611;488;ARAGÓN;HUESCA;HUESCA;TRAFICO;URBANA;CERCA DE UNA CIUDAD;RI;RESIDENCIAL/COMERCIAL;PL. DE RAMON CABRÉ, S/N 
22158002;22;158;2;ES2041A;CCAA Aragón;MONZÓN CENTRO;03/10/2013;;0.1485;41.54974;308;ARAGÓN;HUESCA;MONZÓN;FONDO;URBANA;REGIONAL;RI;INDUSTRIAL;COLÒNIA VALLCARCA, CTRA. C-31, KM 168
22213001;22;213;1;ES1984A;CCAA Aragón;SARIÑENA ESCUELAS;01/08/2008;;-0.15611;41.79778;286;ARAGÓN;HUESCA;SARIÑENA;INDUSTRIAL;URBANA;;UT;INDUSTRIAL;C. DE SANT CRISTÒFOL, 43-45
22190001;22;190;1;ES1883A;CCAA Aragón;TORRELISA;01/02/2008;;0.18194;42.45778;1005;ARAGÓN;HUESCA;PUEYO DE ARAGUÁS (EL);FONDO;RURAL;CERCA DE UNA CIUDAD;RF;RESIDENCIAL;C. DE TORRES I BAGES, 32
44013007;44;13;7;ES1966A;CCAA Aragón;ALCAÑIZ CAPUCHINOS;01/09/2006;;-0.13889;41.05417;340;ARAGÓN;TERUEL;ALCAÑIZ;INDUSTRIAL;URBANA;;SF;INDUSTRIAL;C. DE PABLO IGLESIAS, 63
44013002;44;13;2;ES0324A;CCAA Aragón;ESTANCA;01/01/1981;;-0.17806;41.05306;395;ARAGÓN;TERUEL;ALCAÑIZ;INDUSTRIAL;RURAL;;UF;RESIDENCIAL/COMERCIAL;C. DE L'HÈL·LADE, 17-19
44077001;44;77;1;ES0813A;CCAA Aragón;LA CEROLLERA;01/01/1988;;-0.0575;40.84194;830;ARAGÓN;TERUEL;CEROLLERA (LA);INDUSTRIAL;RURAL;;SI;RESIDENCIAL/INDUSTRIAL;C. DE CARLES DAMM, S/N
44051002;44;51;2;ES0316A;CCAA Aragón;MONAGREGA;01/01/1981;;-0.29083;40.94667;570;ARAGÓN;TERUEL;CALANDA;FONDO;RURAL;;SF;RESIDENCIAL/COMERCIAL;CAMÍ DE PEDRET, 2
44013006;44;13;6;ES1881A;CCAA Aragón;PUIGMORENO;23/03/2006;;-0.25389;41.10583;320;ARAGÓN;TERUEL;ALCAÑIZ;INDUSTRIAL;RURAL;REGIONAL;RF;RESIDENCIAL;C/ PLA DEL MOLÍ - C/ FOLCH I TORRES
44216001;44;216;1;ES1421A;CCAA Aragón;TERUEL;01/06/1995;;-1.10667;40.33639;915;ARAGÓN;TERUEL;TERUEL;FONDO;URBANA;CERCA DE UNA CIUDAD;ST;RESIDENCIAL/INDUSTRIAL;POLÍGON DE LES TÀPIES
50008001;50;8;1;ES1418A;CCAA Aragón;ALAGÓN;01/06/1995;;-1.14333;41.76278;235;ARAGÓN;ZARAGOZA;ALAGÓN;TRAFICO;SUBURBANA;CERCA DE UNA CIUDAD;RT;RESIDENCIAL;ESCOLA NÀUTICA (C. DEL MEDITERRANI, 2)
50059001;50;59;1;ES1400A;CCAA Aragón;BUJARALOZ;01/01/1995;;-0.15194;41.50556;327;ARAGÓN;ZARAGOZA;BUJARALOZ;FONDO;RURAL;CERCA DE UNA CIUDAD;RI;INDUSTRIAL;DEPURADORA DE LES CASES D'ALCANAR
50074001;50;74;1;ES1848A;CCAA Aragón;CASPE;01/11/2006;;-0.03139;41.22889;152;ARAGÓN;ZARAGOZA;CASPE;INDUSTRIAL;SUBURBANA;;UF;RESIDENCIAL/COMERCIAL;BULEVAR ITURRAMA
50297026;50;297;26;ES1044A;Ayto Zaragoza;EL PICARRAL;01/05/1990;;-0.87111;41.67028;195;ARAGÓN;ZARAGOZA;ZARAGOZA;TRAFICO;SUBURBANA;;UF;RESIDENCIAL;UNIVERSIDAD DE EMPRESARIALES
50101001;50;101;1;ES1130A;CCAA Aragón;ESCATRÓN;01/05/1991;;-0.32667;41.28833;175;ARAGÓN;ZARAGOZA;ESCATRÓN;INDUSTRIAL;URBANA;;SF;AGRICOLA;"POLIGONO INDUSTRIAL ""LOS CAQOS"""
50297036;50;297;36;ES1641A;Ayto Zaragoza;RENOVALES;01/10/2002;;-0.89361;41.63528;220;ARAGÓN;ZARAGOZA;ZARAGOZA;FONDO;URBANA;;ST;RESIDENCIAL/INDUSTRIAL;PLAZA GIPUZKOA 1,BEASAIN
50297029;50;297;29;ES1047A;Ayto Zaragoza;ROGER DE FLOR;01/05/1990;;-0.91611;41.65139;212;ARAGÓN;ZARAGOZA;ZARAGOZA;TRAFICO;URBANA;;UT;RESIDENCIAL/COMERCIAL;PLAZA TRES DE MARZO (VITORIA-GASTEIZ) 
33060003;33;60;3;ES1433A;CCAA Asturias;BLIMEA;01/12/1995;;-5.59611;43.27528;267;ASTURIAS (PRINCIPADO DE);ASTURIAS;SAN MARTÍN DEL REY AURELIO;INDUSTRIAL;SUBURBANA;REGIONAL;RF;NATURALEZA;FINCA CAMPAMENTO DE TEFÍA
33011001;33;11;1;ES1432A;CCAA Asturias;CANGAS DE NARCEA;01/11/1995;;-6.54722;43.17778;330;ASTURIAS (PRINCIPADO DE);ASTURIAS;CANGAS DEL NARCEA;INDUSTRIAL;SUBURBANA;;UT;RESIDENCIAL/COMERCIAL;AVDA. GASTEIZ, 93
33037012;33;37;12;ES1651A;CCAA Asturias;JARDINES DE JUAN XXIII;13/02/2003;;-5.77278;43.25083;206;ASTURIAS (PRINCIPADO DE);ASTURIAS;MIERES;TRAFICO;URBANA;DESCONOCIDO;UT;RESIDENCIAL/COMERCIAL;C/ SULIDIZA
33031030;33;31;30;ES0825A;CCAA Asturias;LA FELGUERA;01/01/1988;;-5.68972;43.30639;216;ASTURIAS (PRINCIPADO DE);ASTURIAS;LANGREO;INDUSTRIAL;URBANA;CERCA DE UNA CIUDAD;RI;INDUSTRIAL;
33004021;33;4;21;ES0880A;CCAA Asturias;LLANOPONTE;01/09/1988;;-5.94111;43.54222;10;ASTURIAS (PRINCIPADO DE);ASTURIAS;AVILÉS;TRAFICO;URBANA;;UT;RESIDENCIAL/COMERCIAL;AVENIDA VILLALPANDO
33004020;33;4;20;ES0879A;CCAA Asturias;LLARANES;01/09/1988;;-5.88083;43.55167;15;ASTURIAS (PRINCIPADO DE);ASTURIAS;AVILÉS;TRAFICO;SUBURBANA;;UT;RESIDENCIAL/COMERCIAL;C/ LAS NIEVES
33066004;33;66;4;ES2051A;CCAA Asturias;LUGONES INSTITUTO;01/01/2014;;-5.8027;43.4015;168;ASTURIAS (PRINCIPADO DE);ASTURIAS;SIERO;INDUSTRIAL;URBANA;;SF;RESIDENCIAL;C/LOS CANTEROS
33004048;33;4;48;ES1320A;CCAA Asturias;MATADERO;18/03/1993;;-5.92667;43.58028;5;ASTURIAS (PRINCIPADO DE);ASTURIAS;AVILÉS;INDUSTRIAL;SUBURBANA;;RI;NATURALEZA;DENTRO DE LA CENTRAL HIDRÁULICA DE VILLALBA
33031029;33;31;29;ES0824A;CCAA Asturias;MERIÑÁN;01/01/1988;;-5.70389;43.30889;220;ASTURIAS (PRINCIPADO DE);ASTURIAS;LANGREO;INDUSTRIAL;SUBURBANA;;SI;RESIDENCIAL/INDUSTRIAL;UNKNOWN
33036999;33;36;999;ES0008R;EMEP/VAG/CAMP;NIEMBRO;01/09/1998;;-4.85;43.43917;134;ASTURIAS (PRINCIPADO DE);ASTURIAS;LLANES;FONDO;RURAL;;UF;DESCONOCIDO;FUENTES BLANCAS
33044030;33;44;30;ES1269A;CCAA Asturias;PALACIO DE DEPORTES;01/09/1992;;-5.83139;43.36722;206;ASTURIAS (PRINCIPADO DE);ASTURIAS;OVIEDO;TRAFICO;URBANA;DESCONOCIDO;SF;RESIDENCIAL;COTO ESCOLAR
33004049;33;4;49;ES1424A;CCAA Asturias;PLAZA DE LA GUITARRA;01/07/1995;;-5.9275;43.55861;20;ASTURIAS (PRINCIPADO DE);ASTURIAS;AVILÉS;TRAFICO;URBANA;;UT;RESIDENCIAL;ARCO LADRILLO 3
33044029;33;44;29;ES1268A;CCAA Asturias;PLAZA DE TOROS;01/09/1992;;-5.86472;43.35778;276;ASTURIAS (PRINCIPADO DE);ASTURIAS;OVIEDO;TRAFICO;URBANA;;SF;RESIDENCIAL;ALDEHUELA DE LOS GUZMANES
33044032;33;44;32;ES1572A;CCAA Asturias;PURIFICACIÓN TOMÁS;15/03/2000;;-5.87278;43.37278;286;ASTURIAS (PRINCIPADO DE);ASTURIAS;OVIEDO;FONDO;URBANA;;SI;INDUSTRIAL;FASA
33031032;33;31;32;ES1353A;CCAA Asturias;SAMA I;01/01/1994;;-5.68333;43.29694;212;ASTURIAS (PRINCIPADO DE);ASTURIAS;LANGREO;INDUSTRIAL;URBANA;CERCA DE UNA CIUDAD;RI;INDUSTRIAL;
33044031;33;44;31;ES1378A;CCAA Asturias;TRUBIA;01/04/1994;;-5.985;43.34333;250;ASTURIAS (PRINCIPADO DE);ASTURIAS;OVIEDO;INDUSTRIAL;RURAL;REGIONAL;RF;AGRICOLA;EDAR TORREBAJA
39087004;39;87;4;ES1037A;CCAA Cantabria;BARREDA;01/12/1990;;-4.04278;43.3675;18;CANTABRIA;CANTABRIA;TORRELAVEGA;TRAFICO;URBANA;;UT;RESIDENCIAL/INDUSTRIAL;AVDA. DEL EJÉRCITO
39020001;39;20;1;ES1578A;CCAA Cantabria;CASTRO URDIALES;01/01/2000;;-3.22056;43.3825;20;CANTABRIA;CANTABRIA;CASTRO-URDIALES;FONDO;URBANA;;UI;RESIDENCIAL/INDUSTRIAL;C/ PINTOR MURILLO. PARQUE DE ANDALUCÍA
39087005;39;87;5;ES1039A;CCAA Cantabria;ESCUELA DE MINAS;01/12/1990;;-4.06361;43.35583;20;CANTABRIA;CANTABRIA;TORRELAVEGA;FONDO;URBANA;;UI;INDUSTRIAL;PUNTO LIMPIO. C/ RÍO TAJUÑA, 5
39008001;39;8;1;ES1576A;CCAA Cantabria;ESTACIÓN DEL MEDITERRANEO;01/12/1998;;-3.84194;43.40444;16;CANTABRIA;CANTABRIA;ASTILLERO (EL);INDUSTRIAL;SUBURBANA;;SF;RESIDENCIAL;"POLIDEPORTIVO ""CERRO DEL TELÉGRAFO"" (ESQUINA ENTRE LA AVENIDA DE LOS ALMENDROS Y LA CALLE JUNCAL )"
39025001;39;25;1;ES1579A;CCAA Cantabria;LOS CORRALES DE BUELNA;31/01/2000;;-4.06278;43.26444;88;CANTABRIA;CANTABRIA;CORRALES DE BUELNA (LOS);FONDO;URBANA;;SF;RESIDENCIAL;CRUCE DEL HUMILLADERO CON C/FRANCISCO QUEVEDO (PARQUE EUROPA)
39086001;39;86;1;ES1531A;CCAA Cantabria;LOS TOJOS;01/12/1998;;-4.25306;43.15333;650;CANTABRIA;CANTABRIA;TOJOS (LOS);FONDO;RURAL;;UI;RESIDENCIAL/INDUSTRIAL;C/ GRECIA
39016003;39;16;3;ES1577A;CCAA Cantabria;PARQUE DE CROSS;01/12/1998;;-3.84111;43.42083;10;CANTABRIA;CANTABRIA;CAMARGO;INDUSTRIAL;URBANA;;UT;RESIDENCIAL/COMERCIAL;C/ RONCAL
39059001;39;59;1;ES1530A;CCAA Cantabria;REINOSA;01/12/1998;;-4.13556;43.01194;850;CANTABRIA;CANTABRIA;REINOSA;FONDO;URBANA;;UT;RESIDENCIAL;C.E.I.P MARINA PINEDA -C/ AVDA. DE LAS CIUDADES, 33
39075006;39;75;6;ES1580A;CCAA Cantabria;SANTANDER CENTRO;01/12/1998;;-3.80861;43.46056;9;CANTABRIA;CANTABRIA;SANTANDER;TRAFICO;URBANA;REGIONAL;RF;RESIDENCIAL;C/ DEL DEPÓSITO
39075005;39;75;5;ES1529A;CCAA Cantabria;TETUÁN;01/12/1998;;-3.79028;43.46778;30;CANTABRIA;CANTABRIA;SANTANDER;FONDO;URBANA;REMOTA;RFREM;NATURALEZA;TORRELISA
39087003;39;87;3;ES1038A;CCAA Cantabria;ZAPATÓN;01/12/1990;;-4.06417;43.34639;20;CANTABRIA;CANTABRIA;TORRELAVEGA;FONDO;URBANA;;ST;RESIDENCIAL/COMERCIAL/INDUSTRIAL;C/ SAN JUAN DE LA PEÑA. FRENTE A SAICA
13071017;13;71;17;ES1365A;CCAA Cast. la Mancha;BARRIO 630;01/03/1994;;-4.112;38.70272;685;CASTILLA-LA MANCHA;CIUDAD REAL;PUERTOLLANO;INDUSTRIAL;URBANA;;UI;RESIDENCIAL;AVDA. DE LA CONSTITUCISN, 5
13071014;13;71;14;ES1278A;CCAA Cast. la Mancha;CALLE ANCHA;01/12/1992;;-4.11151;38.68925;705;CASTILLA-LA MANCHA;CIUDAD REAL;PUERTOLLANO;INDUSTRIAL;URBANA;REMOTA;RFREM;NATURALEZA;PARQUE NATURAL DE LA SIERRA DE HUÉTOR-SANTILLÁN
13071015;13;71;15;ES1279A;CCAA Cast. la Mancha;CAMPO DE FÚTBOL;01/12/1992;;-4.08858;38.68198;685;CASTILLA-LA MANCHA;CIUDAD REAL;PUERTOLLANO;INDUSTRIAL;SUBURBANA;;UF;RESIDENCIAL/COMERCIAL;C/ PAJARITOS, 14
13034002;13;34;2;ES1857A;CCAA Cast. la Mancha;CIUDAD REAL;29/11/2007;;-3.93778;38.99389;635;CASTILLA-LA MANCHA;CIUDAD REAL;CIUDAD REAL;FONDO;URBANA;CERCA DE UNA CIUDAD;RI;INDUSTRIAL;C. DE MESTRAL, S/N
13071016;13;71;16;ES1277A;CCAA Cast. la Mancha;INSTITUTO Nº 3;01/12/1992;;-4.10832;38.68065;675;CASTILLA-LA MANCHA;CIUDAD REAL;PUERTOLLANO;INDUSTRIAL;URBANA;;SI;RESIDENCIAL/INDUSTRIAL;C/ SANT JOAN DE DÉU, 1
16078001;16;78;1;ES1858A;CCAA Cast. la Mancha;CUENCA;03/12/2007;;-2.12972;40.06185;948;CASTILLA-LA MANCHA;CUENCA;CUENCA;FONDO;URBANA;;SI;AGRICOLA;FINCA LA LIRA,CARRETERA CÁRTAMA, KM 12
19046001;19;46;1;ES1536A;CCAA Cast. la Mancha;AZUQUECA DE HENARES;01/05/1999;;-3.26461;40.57099;600;CASTILLA-LA MANCHA;GUADALAJARA;AZUQUECA DE HENARES;FONDO;URBANA;REGIONAL;RI;NATURALEZA;LA ROSILLA
19061999;19;61;999;ES0009R;EMEP/VAG/CAMP;CAMPISÁBALOS;01/01/1998;;-3.1425;41.27417;1360;CASTILLA-LA MANCHA;GUADALAJARA;CAMPISÁBALOS;FONDO;RURAL;;SF;AGRICOLA;DEPURADORA DE AGUAS POTABLES
19130001;19;130;1;ES1537A;CCAA Cast. la Mancha;GUADALAJARA;01/05/1999;;-3.17159;40.62984;620;CASTILLA-LA MANCHA;GUADALAJARA;GUADALAJARA;FONDO;URBANA;;UT;RESIDENCIAL/COMERCIAL;C/ VINATEROS - AV. MORATALAZ
45081004;45;81;4;ES1963A;CCAA Cast. la Mancha;ESTACIÓN DE LA SAGRA (ILLESCAS);13/05/2010;;-3.83279;40.11922;548;CASTILLA-LA MANCHA;TOLEDO;ILLESCAS;FONDO;SUBURBANA;;UF;PARQUE;PARQUE MARIANO PANO
45153999;45;153;999;ES0001R;EMEP/VAG/CAMP;SAN PABLO DE LOS MONTES;01/11/1987;;-4.35056;39.54694;917;CASTILLA-LA MANCHA;TOLEDO;SAN PABLO DE LOS MONTES;FONDO;RURAL;REMOTA;RFREM;NATURALEZA;CERRO DE LA FUENTE
45165003;45;165;3;ES1859A;CCAA Cast. la Mancha;TALAVERA DE LA REINA;03/12/2007;;-4.8457;39.95856;369;CASTILLA-LA MANCHA;TOLEDO;TALAVERA DE LA REINA;FONDO;URBANA;;UF;RESIDENCIAL;AV. DE LA VERGE DE MONTSERRAT
45168002;45;168;2;ES1818A;CCAA Cast. la Mancha;TOLEDO2;15/03/2006;;-4.02083;39.86806;500;CASTILLA-LA MANCHA;TOLEDO;TOLEDO;FONDO;URBANA;CERCA DE UNA CIUDAD;RI;NATURALEZA;PLAZA DE LA CONSTITUCIÓN, Nº 1
8113007;8;113;7;ES1125A;CCAA Cataluña;A8-MANRESA;01/04/1991;;1.82531;41.73028;238;CATALUÑA;BARCELONA;MANRESA;TRAFICO;URBANA;;UT;RESIDENCIAL/COMERCIAL;AVDA. DE PUYO S/Nº
8114006;8;114;6;ES1126A;CCAA Cataluña;A9-MARTORELL;01/06/1991;;1.9212;41.47541;78;CATALUÑA;BARCELONA;MARTORELL;INDUSTRIAL;SUBURBANA;REGIONAL;RI;NATURALEZA;S. VICENTE DE VIGO - CARRAL
8102005;8;102;5;ES1135A;CCAA Cataluña;AA-IGUALADA;01/06/1991;;1.62589;41.57763;284;CATALUÑA;BARCELONA;IGUALADA;INDUSTRIAL;SUBURBANA;;UF;PARQUE;PARQUE REINA SOFIA S/N 
8202001;8;202;1;ES1275A;CCAA Cataluña;AC-SANT CELONI;01/06/1992;;2.49575;41.68905;145;CATALUÑA;BARCELONA;SANT CELONI;INDUSTRIAL;SUBURBANA;;SI;RESIDENCIAL/COMERCIAL/INDUSTRIAL;AVENIDA ALCALDE PORTANET
8187012;8;187;12;ES1262A;CCAA Cataluña;AD-SABADELL (GRAN VIA);01/06/1992;;2.10141;41.56118;210;CATALUÑA;BARCELONA;SABADELL;TRAFICO;URBANA;;SI;RESIDENCIAL/INDUSTRIAL;C EL TENDERETE ESQ C/ EL TIMPLE
8307006;8;307;6;ES1555A;CCAA Cataluña;AJUNTAMENT;01/01/2000;;1.72629;41.22409;14;CATALUÑA;BARCELONA;VILANOVA I LA GELTRÚ;FONDO;URBANA;;UF;RESIDENCIAL/COMERCIAL;CALLE PRIMERO DE MAYO (CASA PALACIO, CABILDO DE FUERTEVENTURA)
8252002;8;252;2;ES0700A;CCAA Cataluña;AJUNTAMENT;06/12/1985;;2.125;41.51561;146;CATALUÑA;BARCELONA;BARBERÀ DEL VALLÈS;TRAFICO;URBANA;;UI;RESIDENCIAL/COMERCIAL/INDUSTRIAL;C/ TAMARA. C.P. PEDRO LEZCANO
8033004;8;33;4;ES1680A;CCAA Cataluña;AJUNTAMENT;31/12/2003;;2.16235;41.63466;135;CATALUÑA;BARCELONA;CALDES DE MONTBUI;FONDO;URBANA;;UT;RESIDENCIAL/COMERCIAL;AV. PABLO IGLESIAS - C/ STA. ENGRACIA
8267003;8;267;3;ES1775A;CCAA Cataluña;AJUNTAMENT;01/04/2005;;2.13587;41.60866;213;CATALUÑA;BARCELONA;SENTMENAT;FONDO;SUBURBANA;;SI;RESIDENCIAL/COMERCIAL/INDUSTRIAL;PL. DE LA MASUCA, S/N
8123001;8;123;1;ES0586A;CCAA Cataluña;AJUNTAMENT;15/02/1984;;2.01599;41.41362;13;CATALUÑA;BARCELONA;MOLINS DE REI;TRAFICO;SUBURBANA;;SF;AGRICOLA;JUNTO DEPÓSITO MUNICIPAL DE AGUAS 
8251003;8;251;3;ES1899A;CCAA Cataluña;ANTISTIANA - LA RÁPITA;29/01/2009;;1.64734;41.3084;155;CATALUÑA;BARCELONA;SANTA MARGARIDA I ELS MONJOS;INDUSTRIAL;RURAL;CERCA DE UNA CIUDAD;RF;AGRICOLA/NATURALEZA;OFICINA PARQUE NATURAL DE LA ALBUFERA
8259002;8;259;2;ES1222A;CCAA Cataluña;AR-SANTA MARIA DE PALAUTORDERA;01/04/1992;;2.44094;41.69127;210;CATALUÑA;BARCELONA;SANTA MARIA DE PALAUTORDERA;FONDO;RURAL;CERCA DE UNA CIUDAD;RF;AGRICOLA;PARCELA JUNTO CANAL DE RIEGO DE BENAGEBER
8205002;8;205;2;ES1231A;CCAA Cataluña;AT-SANT CUGAT DEL VALLES;01/05/1992;;2.08898;41.47677;113;CATALUÑA;BARCELONA;SANT CUGAT DEL VALLÈS;FONDO;URBANA;;UT;RESIDENCIAL;POLIESPORTIU MUNICIPAL C/TEODOR LLORENTE, S/N
8307012;8;307;12;ES1339A;CCAA Cataluña;AW-VILANOVA I LA GELTRÚ;01/06/1993;;1.72125;41.21904;12;CATALUÑA;BARCELONA;VILANOVA I LA GELTRÚ;TRAFICO;URBANA;REGIONAL;RI;NATURALEZA;ALTO JUNTO ERMITA DE CORATXAR
8252006;8;252;6;ES1551A;CCAA Cataluña;B9-BARBERÁ DEL VALLÉS;01/06/1998;;2.12538;41.51268;131;CATALUÑA;BARCELONA;BARBERÀ DEL VALLÈS;FONDO;URBANA;;SI;AGRICOLA;SUBESTACIÓN IBERDROLA N-340 KM. 988.8
8015023;8;15;23;ES2027A;CCAA Cataluña;BADALONA (ASSEMBLEA DE CATALUNYA);01/01/2012;;2.24824;41.45131;6;CATALUÑA;BARCELONA;BADALONA;TRAFICO;URBANA;;UT;RESIDENCIAL/COMERCIAL;AV. DEL TORRENT GORNAL - PL. DELS OCELLETS
8015022;8;15;22;ES1928A;CCAA Cataluña;BADALONA-GUARDIA URBANA;22/09/2009;;2.22752;41.44627;2;CATALUÑA;BARCELONA;BADALONA;FONDO;URBANA;;UF;RESIDENCIAL;C. DE GARRIGA I ROCA, 21
8019057;8;19;57;ES1992A;CCAA Cataluña;BARCELONA (PALAU REAL);17/03/2011;;2.11515;41.38748;81;CATALUÑA;BARCELONA;BARCELONA;TRAFICO;URBANA;;UT;RESIDENCIAL/COMERCIAL;AV. DE PAU CASALS, 20
8019052;8;19;52;ES1870A;CCAA Cataluña;BARCELONA-PORT VELL;01/01/2006;;2.18684;41.37494;1;CATALUÑA;BARCELONA;BARCELONA;INDUSTRIAL;SUBURBANA;;ST;RESIDENCIAL/COMERCIAL;PISTA MUNICIPAL D'ATLETISME (LA ROCA SALVADORA)
8307013;8;307;13;ES1447A;CCAA Cataluña;BARRI DEL TACÓ;01/06/1996;;1.72692;41.23429;32;CATALUÑA;BARCELONA;VILANOVA I LA GELTRÚ;INDUSTRIAL;SUBURBANA;;ST;RESIDENCIAL/COMERCIAL;C. DE JOAQUIM BLUME, 28
8019055;8;19;55;ES1900A;CCAA Cataluña;BCN-IES VERDAGUER;01/01/2009;;2.18674;41.38724;7;CATALUÑA;BARCELONA;BARCELONA;FONDO;URBANA;;ST;RESIDENCIAL/COMERCIAL;PL. MAJOR, 1
8298008;8;298;8;ES1642A;CCAA Cataluña;BD-VIC (ESTADIE MUNICIPAL D'ATLETISME);01/10/2002;;2.23857;41.93567;498;CATALUÑA;BARCELONA;VIC;FONDO;SUBURBANA;;ST;INDUSTRIAL;RBLA. DE L'ONZE DE SETEMBRE, 107
8184006;8;184;6;ES1684A;CCAA Cataluña;BF-RUBÍ (CA N'ORIOL);01/01/2004;;2.0425;41.49208;171;CATALUÑA;BARCELONA;RUBÍ;FONDO;URBANA;;UT;RESIDENCIAL/COMERCIAL/INDUSTRIAL;AV. DE LA CONSTITUCIÓN, S/N
8022006;8;22;6;ES1851A;CCAA Cataluña;BK-BERGA (POLIESPORTIU);31/03/2007;;1.84824;42.09791;661;CATALUÑA;BARCELONA;BERGA;FONDO;RURAL;;UF;RESIDENCIAL;C\STA. TERESA DE JORNET N: 38
8251002;8;251;2;ES1896A;CCAA Cataluña;CA L'ANTIC - ELS MONJOS;04/06/2008;;1.6642;41.32052;170;CATALUÑA;BARCELONA;SANTA MARGARIDA I ELS MONJOS;INDUSTRIAL;SUBURBANA;;UT;RESIDENCIAL/INDUSTRIAL;CENTRO DE SALUD
8051003;8;51;3;ES1839A;CCAA Cataluña;CAL MASAVEU;03/02/2005;;2.08708;41.61794;330;CATALUÑA;BARCELONA;CASTELLAR DEL VALLÈS;FONDO;SUBURBANA;;UT;RESIDENCIAL/COMERCIAL/INDUSTRIAL;C/ MARÍA DÍAZ DE HARO, 60
8298009;8;298;9;ES1874A;CCAA Cataluña;CENTRE CIVI SANTA ANA;01/05/2005;;2.25715;41.91959;482;CATALUÑA;BARCELONA;VIC;FONDO;URBANA;CERCA DE UNA CIUDAD;RI;RESIDENCIAL/INDUSTRIAL;C.R.A. LA ABADIA
8158002;8;158;2;ES1871A;CCAA Cataluña;CENTRE DE DIA JOSEP TARRADELLAS;26/07/2007;;2.00787;41.43602;100;CATALUÑA;BARCELONA;PAPIOL (EL);TRAFICO;SUBURBANA;;SI;RESIDENCIAL/INDUSTRIAL;CAMPUS PENYETA ROJA
8058003;8;58;3;ES1853A;CCAA Cataluña;CLARIANA;30/11/2006;;1.6177;41.24489;213;CATALUÑA;BARCELONA;CASTELLET I LA GORNAL;FONDO;RURAL;;SI;RESIDENCIAL/COMERCIAL/INDUSTRIAL;LAS AEROBIAS. SAN JUÁN DE NIEVA
8113002;8;113;2;ES0392A;CCAA Cataluña;COL.LEGI ANSELM CABANES;11/08/1982;;1.83853;41.7277;238;CATALUÑA;BARCELONA;MANRESA;TRAFICO;URBANA;;SI;RESIDENCIAL/COMERCIAL/INDUSTRIAL;EL FLORÁN
8279011;8;279;11;ES1018A;CCAA Cataluña;E1-TERRASSA;01/09/1990;;2.0074;41.55612;261;CATALUÑA;BARCELONA;TERRASSA;TRAFICO;URBANA;CERCA DE UNA CIUDAD;RI;NATURALEZA;GRANJAS CEROLLERA
8112003;8;112;3;ES1397A;CCAA Cataluña;E8-MANLLEU;01/01/1995;;2.28727;42.00328;460;CATALUÑA;BARCELONA;MANLLEU;FONDO;SUBURBANA;;UT;RESIDENCIAL/COMERCIAL;AVDA. LUIS MIRANDA DÁVALOS
8124009;8;124;9;ES1814A;CCAA Cataluña;EA-MOLLET ;01/08/2005;;2.21205;41.54917;90;CATALUÑA;BARCELONA;MOLLET DEL VALLÈS;TRAFICO;SUBURBANA;;UI;RESIDENCIAL;AV. 20 DE ABRIL
8305006;8;305;6;ES1815A;CCAA Cataluña;EB-VILAFRANCA DEL PENEDÈS;31/12/2005;;1.68658;41.34682;192;CATALUÑA;BARCELONA;VILAFRANCA DEL PENEDÈS;FONDO;SUBURBANA;;UI;RESIDENCIAL/COMERCIAL/INDUSTRIAL;C/ CASTILLO
8121013;8;121;13;ES1816A;CCAA Cataluña;EC-MATARÓ;31/12/2005;;2.44325;41.54716;40;CATALUÑA;BARCELONA;MATARÓ;FONDO;URBANA;;SI;INDUSTRIAL;COLEGIO CARTEYA
8260010;8;260;10;ES1817A;CCAA Cataluña;ED-SANTA PERPETUA DE MOGODA;10/11/2006;;2.1838;41.52671;84;CATALUÑA;BARCELONA;SANTA PERPÈTUA DE MOGODA;INDUSTRIAL;SUBURBANA;REGIONAL;RI;NATURALEZA;PARAJE LA JOYA DE AGUAMAR
8169009;8;169;9;ES1983A;CCAA Cataluña;EL PRAT DE LLOBREGAT (CEM SAGNIER) ;01/01/2011;;2.08214;41.32177;7;CATALUÑA;BARCELONA;PRAT DE LLOBREGAT (EL);TRAFICO;SUBURBANA;REGIONAL;RF;RESIDENCIAL/INDUSTRIAL;ANTIGUA CENTRAL TÉRMICA ALCUDIA I, PUERTO
8054001;8;54;1;ES0963A;CCAA Cataluña;ESCOLA;01/01/1990;;1.98202;41.47338;130;CATALUÑA;BARCELONA;CASTELLBISBAL;TRAFICO;URBANA;;SI;INDUSTRIAL;TERMINAL DE MERCANCIAS DE ADIF (ANTIGUA RENFE)
8077002;8;77;2;ES0266A;CCAA Cataluña;ESCOLA ISIDRE MARTÍ;01/01/1980;;2.08614;41.37932;108;CATALUÑA;BARCELONA;ESPLUGUES DE LLOBREGAT;FONDO;SUBURBANA;REMOTA;RFREM;NATURALEZA;EL ACEBUCHE
8136003;8;136;3;ES0704A;CCAA Cataluña;ESCOLA MARINADA;01/07/1985;;2.26525;41.55242;116;CATALUÑA;BARCELONA;MONTORNÈS DEL VALLÈS;INDUSTRIAL;SUBURBANA;;UT;RESIDENCIAL/COMERCIAL;AV. JOSÉ GÁRATE (JUNTO POLIDEPORTIVO MUNICIPAL).
8263006;8;263;6;ES1663A;CCAA Cataluña;ESCOLA VERGE DEL ROCIO;01/02/2003;;2.00213;41.39882;30;CATALUÑA;BARCELONA;SANT VICENÇ DELS HORTS;INDUSTRIAL;SUBURBANA;REMOTA;RFREM;NATURALEZA;CAMINO FORESTAL DE ACCESO AL REPETIDOR DE TELEFONÍA
8211003;8;211;3;ES1362A;CCAA Cataluña;EUGENI D'ORS;01/01/1994;;2.04445;41.38323;25;CATALUÑA;BARCELONA;SANT FELIU DE LLOBREGAT;TRAFICO;URBANA;;UF;RESIDENCIAL;C/ DE TETUÁN, 59 (CENTRO SALUD PUERTOCHICO)
8089005;8;89;5;ES1910A;CCAA Cataluña;GAVA;01/01/2009;;1.99152;41.30311;25;CATALUÑA;BARCELONA;GAVÀ;FONDO;SUBURBANA;;SI;RESIDENCIAL;C/ CASSIOPEA S/N
8096014;8;96;14;ES1891A;CCAA Cataluña;GRANOLLERS;31/12/2008;;2.28712;41.59867;133;CATALUÑA;BARCELONA;GRANOLLERS;TRAFICO;URBANA;;UF;RESIDENCIAL/INDUSTRIAL;C/ SANTA CLARA, S/N
8121009;8;121;9;ES1390A;CCAA Cataluña;GUARDERIA DE GROS;10/08/1994;;2.42205;41.53042;8;CATALUÑA;BARCELONA;MATARÓ;INDUSTRIAL;SUBURBANA;CERCA DE UNA CIUDAD;RF;AGRICOLA;JUNTO CAMPO DE FUTBOL MUNICIPAL
8019004;8;19;4;ES0691A;CCAA Cataluña;I2-BARCELONA (POBLE NOU);01/01/1982;;2.20452;41.40388;3;CATALUÑA;BARCELONA;BARCELONA;TRAFICO;URBANA;;SF;RESIDENCIAL;I.E.S DE BENIGANIM
8101001;8;101;1;ES0692A;CCAA Cataluña;I3-L'HOSPITALET DE LLOBREGAT;01/07/1985;;2.11497;41.3705;29;CATALUÑA;BARCELONA;HOSPITALET DE LLOBREGAT (L');TRAFICO;URBANA;;SF;INDUSTRIAL;POL. AGROGAL. L'ALCUDIA C/ LA BASTIDA DE LES ALCUSSES, S/N
8194008;8;194;8;ES1148A;CCAA Cataluña;I4-SANT ADRIÀ DE BESÒS;01/04/1990;;2.22224;41.42562;7;CATALUÑA;BARCELONA;SANT ADRIÀ DE BESÒS;TRAFICO;SUBURBANA;;SF;RESIDENCIAL;PARKING HOSPITAL COMARCAL DE LA VEGA BAJA
8125002;8;125;2;ES0584A;CCAA Cataluña;I6-MONTCADA I REIXAC;18/01/1984;;2.1883;41.48202;34;CATALUÑA;BARCELONA;MONTCADA I REIXAC;INDUSTRIAL;SUBURBANA;;UT;RESIDENCIAL;C/ FILIPINAS, S/N
8263001;8;263;1;ES0694A;CCAA Cataluña;I8-SANT VICENÇ DELS HORTS;01/06/1982;;2.0098;41.39216;38;CATALUÑA;BARCELONA;SANT VICENÇ DELS HORTS;INDUSTRIAL;SUBURBANA;CERCA DE UNA CIUDAD;RT;RESIDENCIAL;DEIXALLERIA DE L'AMETLLA DE MAR
8196001;8;196;1;ES0971A;CCAA Cataluña;IC-SANT ANDREU DE LA BARCA;01/06/1985;;1.97489;41.45077;40;CATALUÑA;BARCELONA;SANT ANDREU DE LA BARCA;INDUSTRIAL;SUBURBANA;;UF;RESIDENCIAL/COMERCIAL;FACULTAT DE BIOLOGIA, CAMP DE PRÀCTIQUES
8019042;8;19;42;ES1396A;CCAA Cataluña;ID-BARCELONA;01/01/1986;;2.1331;41.3788;35;CATALUÑA;BARCELONA;BARCELONA;TRAFICO;URBANA;;SI;RESIDENCIAL/INDUSTRIAL;C. DE BENICARLÓ, 39-43
8283003;8;283;3;ES1887A;CCAA Cataluña;IES DE TONA;02/04/2008;;2.223;41.84659;606;CATALUÑA;BARCELONA;TONA;FONDO;RURAL;;ST;RESIDENCIAL/INDUSTRIAL;C. DEL DR. TRUETA, 6
8019053;8;19;53;ES1852A;CCAA Cataluña;IES GOYA;01/10/2007;;2.17057;41.42068;2;CATALUÑA;BARCELONA;BARCELONA;FONDO;URBANA;;UT;RESIDENCIAL/COMERCIAL;C. DE FRANCESC MACIÀ, 145
8022005;8;22;5;ES1843A;CCAA Cataluña;IES GUILLEM DE BERGUEDA;01/04/2005;;1.85806;42.10231;649;CATALUÑA;BARCELONA;BERGA;FONDO;SUBURBANA;;UF;RESIDENCIAL;PL. DE SANTA ANNA
8019043;8;19;43;ES1438A;CCAA Cataluña;IH-BARCELONA(EIXAMPLE);01/01/1984;;2.15382;41.38534;26;CATALUÑA;BARCELONA;BARCELONA;TRAFICO;URBANA;REMOTA;RFREM;NATURALEZA;EMBALSE DE AHIJÓN
8245012;8;245;12;ES1453A;CCAA Cataluña;II-SANTA COLOMA DE GRAMENET;01/01/1990;;2.20951;41.44735;23;CATALUÑA;BARCELONA;SANTA COLOMA DE GRAMENET;TRAFICO;URBANA;;UI;RESIDENCIAL/INDUSTRIAL;COLEGIO PÚBLICO CALDERÓN DE LA BARCA
8019044;8;19;44;ES1480A;CCAA Cataluña;IJ-BARCELONA (GRACIA-SANT GERVASI);01/01/1982;;2.15339;41.39874;57;CATALUÑA;BARCELONA;BARCELONA;TRAFICO;URBANA;;UT;RESIDENCIAL/COMERCIAL;AVENIDA DE VALLADOLID
8019050;8;19;50;ES1679A;CCAA Cataluña;IL-CIUTADELLA;28/02/2004;;2.18742;41.38641;7;CATALUÑA;BARCELONA;BARCELONA;FONDO;URBANA;REGIONAL;RF;NATURALEZA;CASA DEL PARQUE PICOS DE EUROPA
8019054;8;19;54;ES1856A;CCAA Cataluña;IN-BARCELONA(VALL DHEBRON);31/12/2007;;2.14799;41.42608;136;CATALUÑA;BARCELONA;BARCELONA;FONDO;URBANA;REMOTA;RFREM;NATURALEZA;TESO SANTO
8015021;8;15;21;ES1892A;CCAA Cataluña;IR-BADALONA;01/12/2008;;2.23788;41.44398;7;CATALUÑA;BARCELONA;BADALONA;TRAFICO;URBANA;;SI;INDUSTRIAL;ESTACIÓN DE AUTOBUSES
8169008;8;169;8;ES1929A;CCAA Cataluña;IS-EL PRAT (JARDINS DE LA PAU);01/11/2009;;2.09773;41.3215;5;CATALUÑA;BARCELONA;PRAT DE LLOBREGAT (EL);TRAFICO;SUBURBANA;;SI;AGRICOLA;UNKNOWN
8125013;8;125;13;ES1931A;CCAA Cataluña;L1-MONTCADA (CAN SANT JOAN);01/02/2010;;2.18423;41.4698;29;CATALUÑA;BARCELONA;MONTCADA I REIXAC;INDUSTRIAL;SUBURBANA;;UI;RESIDENCIAL/INDUSTRIAL;PARQUE ANTONIO CABEZÓN
8113008;8;113;8;ES1861A;CCAA Cataluña;MANRESA-AJUNTAMENT;14/02/2006;;1.82691;41.72299;241;CATALUÑA;BARCELONA;MANRESA;TRAFICO;SUBURBANA;;UI;RESIDENCIAL/COMERCIAL/INDUSTRIAL;C/ LEOPOLDO LUGONES
8121014;8;121;14;ES1841A;CCAA Cataluña;MATARO-LABORATORI D'AIGES;01/07/2005;;2.43729;41.55186;30;CATALUÑA;BARCELONA;MATARÓ;FONDO;URBANA;;UT;RESIDENCIAL/INDUSTRIAL;AV. SOLVAY, S/N (PLAZA ANTIGUA FERRETERA)
8279001;8;279;1;ES0395A;CCAA Cataluña;MINA PUBLICA D'AIGÜES;08/09/1982;;2.0146;41.56782;277;CATALUÑA;BARCELONA;TERRASSA;INDUSTRIAL;URBANA;REGIONAL;RI;INDUSTRIAL;VILLANUEVA DEL REY
8125012;8;125;12;ES1665A;CCAA Cataluña;MONTCADA-AJUNTAMENT;17/07/2003;;2.18727;41.47996;44;CATALUÑA;BARCELONA;MONTCADA I REIXAC;INDUSTRIAL;SUBURBANA;;SI;RESIDENCIAL/COMERCIAL/INDUSTRIAL;CAMPAMENTO
8137001;8;137;1;ES1778A;CCAA Cataluña;MONTSENY (LA CASTANYA);01/01/2005;;2.35802;41.77934;693;CATALUÑA;BARCELONA;MONTSENY;FONDO;RURAL;;UF;RESIDENCIAL/COMERCIAL/INDUSTRIAL;PASEO DE EUROPA, S/N
8121012;8;121;12;ES1413A;CCAA Cataluña;PABLO IGLESIAS;01/04/1995;;2.43257;41.53175;28;CATALUÑA;BARCELONA;MATARÓ;FONDO;SUBURBANA;;UT;RESIDENCIAL/COMERCIAL/INDUSTRIAL;AV. ARGENTINA, S/N
8157003;8;157;3;ES2012A;CCAA Cataluña;PALLEJÀ - ROCA DE VILANA;29/02/2012;;1.99052;41.41532;82;CATALUÑA;BARCELONA;PALLEJÀ;INDUSTRIAL;SUBURBANA;;UI;RESIDENCIAL;AVDA. DE ANDALUCÍA, S/N
8019028;8;19;28;ES0559A;CCAA Cataluña;PLAÇA UNIVERSITAT;01/01/1984;;2.16492;41.38742;24;CATALUÑA;BARCELONA;BARCELONA;TRAFICO;URBANA;;UI;RESIDENCIAL/COMERCIAL;PLAZA SHULTZ
8182004;8;182;4;ES1777A;CCAA Cataluña;PONT DE VILOMARA I ROCAFORT;01/01/2005;;1.87224;41.70177;210;CATALUÑA;BARCELONA;PONT DE VILOMARA I ROCAFORT (EL);INDUSTRIAL;RURAL;;UI;RESIDENCIAL/COMERCIAL/INDUSTRIAL;C/ CELESTINO CABEZA, S/N
8184007;8;184;7;ES1895A;CCAA Cataluña;RUBI-ESCARDIVOL;05/06/2006;;2.02964;41.49408;128;CATALUÑA;BARCELONA;RUBÍ;TRAFICO;SUBURBANA;REGIONAL;RF;AGRICOLA/NATURALEZA;PENA RAMA
8187014;8;187;14;ES1872A;CCAA Cataluña;SABADELL-IES ESCOLA INDUSTRIAL;01/08/2006;;2.10516;41.54823;195;CATALUÑA;BARCELONA;SABADELL;FONDO;URBANA;;SI;RESIDENCIAL/INDUSTRIAL/AGRICOLA;CASA DE SAUDE
8211004;8;211;4;ES1964A;CCAA Cataluña;SANT FELIU (CEIP MARTÍ I POL);01/05/2010;;2.05739;41.38664;81;CATALUÑA;BARCELONA;SANT FELIU DE LLOBREGAT;INDUSTRIAL;SUBURBANA;REGIONAL;RI;RESIDENCIAL/INDUSTRIAL;27392 OURAL, SARRIA
8274004;8;274;4;ES1220A;CCAA Cataluña;SANT JOSEP DE CALASSANÇ;01/03/1992;;1.75528;41.83098;325;CATALUÑA;BARCELONA;SÚRIA;TRAFICO;SUBURBANA;;SF;RESIDENCIAL;PARQUE JUAN CARLOS I
8221004;8;221;4;ES1965A;CCAA Cataluña;SANT JUST (CEIP MONTSENY);01/03/2010;;2.06635;41.38193;85;CATALUÑA;BARCELONA;SANT JUST DESVERN;TRAFICO;SUBURBANA;;SF;RESIDENCIAL;PARQUE LIANA
8245013;8;245;13;ES1776A;CCAA Cataluña;SANTA COLOMA DE GRAMENET;01/01/2005;;2.2082;41.45212;33;CATALUÑA;BARCELONA;SANTA COLOMA DE GRAMENET;TRAFICO;URBANA;;UT;RESIDENCIAL/COMERCIAL;AUDITORIO MUNICIPAL - C/MOLINO DE VIENTO
8270006;8;270;6;ES2033A;CCAA Cataluña;SITGES (VALLCARCA) - OFICINES;14/02/2013;;1.85933;41.24238;19;CATALUÑA;BARCELONA;SITGES;INDUSTRIAL;RURAL;;SI;RESIDENCIAL/INDUSTRIAL;AVDA. DE ANDALUCÍA (CAMPO DE FÚTBOL REPSOL)
8263007;8;263;7;ES2011A;CCAA Cataluña;ST. VICENÇ DELS HORTS - ÀLABA;29/02/2012;;1.99963;41.40077;65;CATALUÑA;BARCELONA;SANT VICENÇ DELS HORTS;INDUSTRIAL;SUBURBANA;REGIONAL;RI;AGRICOLA;LA ESTANCA
8074005;8;74;5;ES1773A;CCAA Cataluña;T2-CUBELLES;31/12/2004;;1.6722;41.20223;5;CATALUÑA;BARCELONA;CUBELLES;INDUSTRIAL;SUBURBANA;;UI;RESIDENCIAL;CUARTEL GUARDIA CIVIL
8282001;8;282;1;ES1842A;CCAA Cataluña;TIANA;01/06/2005;;2.26915;41.48151;111;CATALUÑA;BARCELONA;TIANA;FONDO;SUBURBANA;;UI;RESIDENCIAL/INDUSTRIAL;C/ SALOU
8283004;8;283;4;ES1923A;CCAA Cataluña;TONA - ZONA ESPORTIVA;01/06/2009;;2.21758;41.84603;620;CATALUÑA;BARCELONA;TONA;FONDO;RURAL;REGIONAL;RI;RESIDENCIAL/AGRICOLA;SAN PEDRO DE SORRIZO, ARTEIXO
8301004;8;301;4;ES1903A;CCAA Cataluña;VILADECANS-ATRIUM;01/01/2009;;2.01382;41.31348;14;CATALUÑA;BARCELONA;VILADECANS;FONDO;SUBURBANA;;SI;RESIDENCIAL/COMERCIAL/NATURALEZA;PASEO FLUVIAL S/N, ARTEIXO
8302005;8;302;5;ES2035A;CCAA Cataluña;VILANOVA DEL CAMÍ (HORTS);21/02/2013;;1.63761;41.5677;305;CATALUÑA;BARCELONA;VILANOVA DEL CAMÍ;FONDO;SUBURBANA;;SF;AGRICOLA;CAMINO LA CHOZA S/N
8019045;8;19;45;ES0567A;CCAA Cataluña;ZONA UNIVERSITARIA;01/01/1984;;2.11957;41.38491;24;CATALUÑA;BARCELONA;BARCELONA;FONDO;URBANA;;UI;RESIDENCIAL/INDUSTRIAL;LOMO LAS BRUJAS S/N
17044006;17;44;6;ES0991A;CCAA Cataluña;AJUNTAMENT;01/04/1990;;2.87424;41.8849;160;CATALUÑA;GIRONA;CASSÀ DE LA SELVA;TRAFICO;SUBURBANA;;UF;RESIDENCIAL/INDUSTRIAL;CALLE CAMINO DEL HIERRO
17022002;17;22;2;ES1559A;CCAA Cataluña;AJUNTAMENT;01/01/2000;;3.03743;41.95933;9;CATALUÑA;GIRONA;BISBAL D'EMPORDÀ (LA);FONDO;SUBURBANA;;UF;RESIDENCIAL;AVDA. SANTA ROSA DE LIMA S/N
17125001;17;125;1;ES1310A;CCAA Cataluña;AK-PARDINES;01/01/1993;;2.21427;42.31208;1226;CATALUÑA;GIRONA;PARDINES;FONDO;RURAL;;UT;RESIDENCIAL/COMERCIAL;AV. ANDALUCÍA, S/N
17001002;17;1;2;ES1201A;CCAA Cataluña;AL-AGULLANA;01/02/1992;;2.84214;42.39198;214;CATALUÑA;GIRONA;AGULLANA;FONDO;RURAL;;SF;RESIDENCIAL/COMERCIAL;SE-30 - N-IV
17013001;17;13;1;ES1311A;CCAA Cataluña;AV-BEGUR;01/01/1993;;3.21285;41.95868;200;CATALUÑA;GIRONA;BEGUR;FONDO;RURAL;;UF;RESIDENCIAL/COMERCIAL;CAMINO DE VERA S/N
17184001;17;184;1;ES1347A;CCAA Cataluña;AX-SANTA PAU;01/01/1994;;2.51021;42.14326;496;CATALUÑA;GIRONA;SANTA PAU;FONDO;RURAL;REGIONAL;RF;AGRICOLA;EDAR DE TORRE ENDOMENECH
17027002;17;27;2;ES1936A;CCAA Cataluña;BREDA-CORREUS ANTIC;01/01/2010;;2.55666;41.74633;160;CATALUÑA;GIRONA;BREDA;INDUSTRIAL;RURAL;;SI;RESIDENCIAL/INDUSTRIAL;C.P. MONTEBLANCO
17032999;17;32;999;ES0010R;EMEP/VAG/CAMP;CABO DE CREUS;01/07/1997;;3.31583;42.31917;23;CATALUÑA;GIRONA;CADAQUÉS;FONDO;RURAL;;UT;RESIDENCIAL/COMERCIAL;AV. DE ROMA - C. D'URGELL
17079003;17;79;3;ES1999A;CCAA Cataluña;GIRONA (ESCOLA DE MÚSICA);01/05/2011;;2.81655;41.97639;73;CATALUÑA;GIRONA;GIRONA;TRAFICO;URBANA;;SF;RESIDENCIAL/COMERCIAL;AV. DE JOSEP TARRADELLAS, S/N
25120001;25;120;1;ES1225A;CCAA Cataluña;AB-LLEIDA;01/04/1992;;0.61573;41.61579;220;CATALUÑA;LLEIDA;LLEIDA;TRAFICO;URBANA;;SF;RESIDENCIAL/COMERCIAL;C. DEL GENERAL BOADELLA, 5
25209001;25;209;1;ES1248A;CCAA Cataluña;AO-SORT;01/06/1992;;1.13;42.40538;692;CATALUÑA;LLEIDA;SORT;FONDO;RURAL;CERCA DE UNA CIUDAD;SI;RESIDENCIAL/COMERCIAL/INDUSTRIAL;C. D'ANSELM CLAVÉ, 9
25051001;25;51;1;ES1348A;CCAA Cataluña;AZ-BELLVER DE CERDANYA;01/01/1994;;1.77678;42.36832;1060;CATALUÑA;LLEIDA;BELLVER DE CERDANYA;FONDO;RURAL;CERCA DE UNA CIUDAD;SF;RESIDENCIAL/INDUSTRIAL/AGRICOLA;ESTADI MUNICIPAL D'ATLETISME
25172001;25;172;1;ES1588A;CCAA Cataluña;BB-PONTS;31/12/2000;;1.19297;41.90665;370;CATALUÑA;LLEIDA;PONTS;FONDO;RURAL;;UF;RESIDENCIAL;C/ POETA JOSE HIERRO, POLIDEPORTIVO PACHI TORRE
25224999;25;224;999;ES0014R;EMEP/VAG/CAMP;ELS TORMS;01/11/2000;;0.73472;41.39389;470;CATALUÑA;LLEIDA;TORMS (ELS);FONDO;RURAL;;UI;RESIDENCIAL;LEOPOLDO CALVO 3
25119002;25;119;2;ES2034A;CCAA Cataluña;JUNEDA (PLA DE MOLÍ);08/05/2013;;0.82993;41.5441;255;CATALUÑA;LLEIDA;JUNEDA;FONDO;RURAL;CERCA DE UNA CIUDAD;RI;DESCONOCIDO;LILLO DEL BIERZO
25196001;25;196;1;ES1982A;CCAA Cataluña;MONTSEC (OAM);31/12/2010;;0.72956;42.05134;1570;CATALUÑA;LLEIDA;SANT ESTEVE DE LA SARGA;FONDO;RURAL;;UT;RESIDENCIAL;BARRIO DE LA BAÑEZA
43103001;43;103;1;ES1122A;CCAA Cataluña;A1-PERAFORT;01/07/1990;;1.2367;41.19359;97;CATALUÑA;TARRAGONA;PERAFORT;INDUSTRIAL;RURAL;;SI;RESIDENCIAL;GAYESCAS S/N
43047001;43;47;1;ES1123A;CCAA Cataluña;A3-CONSTANTÍ;01/06/1990;;1.21772;41.15492;56;CATALUÑA;TARRAGONA;CONSTANTÍ;INDUSTRIAL;SUBURBANA;;UI;INDUSTRIAL;RESIDENCIA DE LA TERCERA EDAD DE BURRIANA
43171001;43;171;1;ES1117A;CCAA Cataluña;A4-VILA-SECA;01/06/1990;;1.15182;41.11209;41;CATALUÑA;TARRAGONA;VILA-SECA;INDUSTRIAL;SUBURBANA;REGIONAL;RF;RESIDENCIAL/NATURALEZA;ASSOCIACIÓ NEREO, MAS D'EN PINC
43148001;43;148;1;ES1124A;CCAA Cataluña;A5-TARRAGONA (ST. SALVADOR);01/06/1990;;1.2397;41.15945;77;CATALUÑA;TARRAGONA;TARRAGONA;INDUSTRIAL;SUBURBANA;CERCA DE UNA CIUDAD;RF;AGRICOLA;PARAJE SITUADO SOBRE EL CAMPO DE FÚTBOL
43148003;43;148;3;ES1120A;CCAA Cataluña;A7-BONAVISTA;01/06/1990;;1.19198;41.11588;39;CATALUÑA;TARRAGONA;TARRAGONA;INDUSTRIAL;SUBURBANA;;UT;RESIDENCIAL/COMERCIAL;C/ ROGER DE FLOR - AV. DE MADRID
43123005;43;123;5;ES1208A;CCAA Cataluña;AF-REUS;01/02/1992;;1.12017;41.15078;102;CATALUÑA;TARRAGONA;REUS;TRAFICO;SUBURBANA;;UI;RESIDENCIAL/COMERCIAL;CASA MUNICIPAL DE CULTURA
43004004;43;4;4;ES2009A;CCAA Cataluña;ALCANAR (DEPURADORA);01/11/2011;;0.5468;40.57778;20;CATALUÑA;TARRAGONA;ALCANAR;INDUSTRIAL;RURAL;;SI;RESIDENCIAL/INDUSTRIAL;CTRA. DE MAHON A SAN LUIS, KM 2
43004005;43;4;5;ES2017A;CCAA Cataluña;ALCANAR(LLAR DE JUBILATS);01/03/2012;;0.52998;40.55282;7;CATALUÑA;TARRAGONA;ALCANAR;INDUSTRIAL;SUBURBANA;;SF;COMERCIAL/INDUSTRIAL/AGRICOLA;C/ CARNESSERS-POLIGON INDUSTRIAL-SERVEIS
43014001;43;14;1;ES1215A;CCAA Cataluña;AP-AMPOSTA;26/02/1992;;0.58165;40.70671;8;CATALUÑA;TARRAGONA;AMPOSTA;FONDO;SUBURBANA;REMOTA;RFREM;NATURALEZA;CTRA. DE POLLENÇA A CAMPANET
43148022;43;148;22;ES1312A;CCAA Cataluña;AS-TARRAGONA;01/01/1993;;1.20077;41.10368;5;CATALUÑA;TARRAGONA;TARRAGONA;INDUSTRIAL;SUBURBANA;;SI;RESIDENCIAL/COMERCIAL/INDUSTRIAL;DIPUTACIÓN DE BARRANCO HONDO
43064001;43;64;1;ES1379A;CCAA Cataluña;AY-GANDESA;01/05/1994;;0.43971;41.0582;368;CATALUÑA;TARRAGONA;GANDESA;FONDO;RURAL;;ST;DESCONOCIDO;UNKNOWN
43044003;43;44;3;ES1754A;CCAA Cataluña;BC-LA SÈNIA;01/10/2004;;0.28845;40.643;428;CATALUÑA;TARRAGONA;SÉNIA (LA);FONDO;RURAL;CERCA DE UNA CIUDAD;RI;AGRICOLA;CAMINO CEMENTERIO
43148028;43;148;28;ES1666A;CCAA Cataluña;BE-TARRAGONA (PARC DE LA CIUTAT);02/07/2003;;1.24165;41.11739;13;CATALUÑA;TARRAGONA;TARRAGONA;FONDO;URBANA;REGIONAL;RI;RESIDENCIAL/COMERCIAL/INDUSTRIAL;ESTACIÓN FITOPATOLÓGICA DE AREEIRO (LOURIZÁN)
43005002;43;5;2;ES1812A;CCAA Cataluña;BI-ALCOVER ;31/12/2005;;1.17992;41.27838;238;CATALUÑA;TARRAGONA;ALCOVER;INDUSTRIAL;RURAL;;UF;INDUSTRIAL;AVDA. FERMÍN SALVOCHEA, S/N
43070001;43;70;1;ES1813A;CCAA Cataluña;BJ- GUIAMETS;01/03/2006;;0.7551;41.10069;220;CATALUÑA;TARRAGONA;GUIAMETS (ELS);FONDO;RURAL;;UF;RESIDENCIAL;PARQUE DE PURIFICACIÓN TOMÁS
43016002;43;16;2;ES1408A;CCAA Cataluña;COL.LEGI PÚBLIC SANT JULIÁ;01/06/1992;;1.59503;41.26805;169;CATALUÑA;TARRAGONA;ARBOÇ (L');INDUSTRIAL;RURAL;;UF;RESIDENCIAL/COMERCIAL/INDUSTRIAL;C/JUAN PEÑALVER
43148026;43;148;26;ES1506A;CCAA Cataluña;DARP;01/06/1990;;1.2467;41.1229;22;CATALUÑA;TARRAGONA;TARRAGONA;FONDO;URBANA;;UF;DESCONOCIDO;C/JÚPITER, 21
43013001;43;13;1;ES1909A;CCAA Cataluña;ESCOLA NAUTICA-L'AMETLLA;12/03/2009;;0.79918;40.88066;2;CATALUÑA;TARRAGONA;AMETLLA DE MAR (L');TRAFICO;RURAL;;SI;RESIDENCIAL/INDUSTRIAL;PLAZA DEL FRONTÓN, S/N
43013002;43;13;2;ES1930A;CCAA Cataluña;L'AMETLLA DE MAR - DEIXALLERIA;01/09/2009;;0.8098;40.90269;34;CATALUÑA;TARRAGONA;AMETLLA DE MAR (L');TRAFICO;RURAL;;SI;RESIDENCIAL;PARQUE DO CONCELLO
43162005;43;162;5;ES1948A;CCAA Cataluña;R2-VANDELLÒS I L'H (BARRAC DEL TERME);31/01/2010;;0.83134;40.93955;96;CATALUÑA;TARRAGONA;VANDELLÒS I L'HOSPITALET DE L'INFANT;INDUSTRIAL;RURAL;;UT;RESIDENCIAL/COMERCIAL;C/ GALICIA (MERCADO CENTRAL)
43162001;43;162;1;ES1854A;CCAA Cataluña;R4-VANDELLÓS I L'HOSPITALET(ELS DEDALTS);31/12/2006;;0.83108;41.00821;737;CATALUÑA;TARRAGONA;VANDELLÒS I L'HOSPITALET DE L'INFANT;FONDO;RURAL;;SF;RESIDENCIAL/AGRICOLA;COMPLEJO DEPORTIVO AFONSO MORENO
43162002;43;162;2;ES1855A;CCAA Cataluña;VIVER D¿EMPRESES;31/12/2006;;0.91288;41.00951;60;CATALUÑA;TARRAGONA;VANDELLÒS I L'HOSPITALET DE L'INFANT;TRAFICO;SUBURBANA;;UF;RESIDENCIAL/INDUSTRIAL;C/ LUCIO MARCOS, COMPLEJO DEPORTIVO LA LECHERA
3002002;3;2;2;ES1847A;CCAA Com. Valenciana;AGOST;06/09/2005;;-0.63806;38.43639;312;COMUNIDAD VALENCIANA;ALICANTE/ALACANT;AGOST;INDUSTRIAL;URBANA;;UF;RESIDENCIAL;C/ RIAÑO
3014009;3;14;9;ES1968A;CCAA Com. Valenciana;ALACANT - RABASSA;20/01/2010;;-0.51389;38.35111;20;COMUNIDAD VALENCIANA;ALICANTE/ALACANT;ALICANTE/ALACANT;INDUSTRIAL;SUBURBANA;;UF;RESIDENCIAL;C/PRINCESA DE EBOLI - C/MARIA TUDOR
3014006;3;14;6;ES1635A;CCAA Com. Valenciana;ALACANT-EL PLÁ;01/07/2002;;-0.47194;38.35944;45;COMUNIDAD VALENCIANA;ALICANTE/ALACANT;ALICANTE/ALACANT;TRAFICO;URBANA;CERCA DE UNA CIUDAD;RF;RESIDENCIAL;CAMPO DE GOLF PANORAMA
3014008;3;14;8;ES1915A;CCAA Com. Valenciana;ALACANT-FLORIDA-BABEL;18/07/2008;;-0.50667;38.34028;55;COMUNIDAD VALENCIANA;ALICANTE/ALACANT;ALICANTE/ALACANT;FONDO;URBANA;;SF;RESIDENCIAL/COMERCIAL;ECOPARQUE DE BENIDORM
3009006;3;9;6;ES1623A;CCAA Com. Valenciana;ALCOI - VERGE DELS LLIRIS;25/06/2002;;-0.46694;38.70639;534;COMUNIDAD VALENCIANA;ALICANTE/ALACANT;ALCOY/ALCOI;FONDO;URBANA;;UT;RESIDENCIAL/COMERCIAL;JARDINS DE CAN MANTEGA
3031002;3;31;2;ES1675A;CCAA Com. Valenciana;BENIDORM;27/01/2004;;-0.14667;38.57139;44;COMUNIDAD VALENCIANA;ALICANTE/ALACANT;BENIDORM;FONDO;SUBURBANA;;SI;RESIDENCIAL/INDUSTRIAL;AV. DE LA UNITAT, 6 (AJUNTAMENT)
3105001;3;105;1;ES1913A;CCAA Com. Valenciana;EL PINÓS;18/01/2006;;-1.06472;38.45167;642;COMUNIDAD VALENCIANA;ALICANTE/ALACANT;PINOSO;FONDO;RURAL;;SI;RESIDENCIAL/INDUSTRIAL;UNIVERSITAT LABORAL
3066003;3;66;3;ES1914A;CCAA Com. Valenciana;ELDA-LACY;04/09/2008;;-0.80333;38.45472;355;COMUNIDAD VALENCIANA;ALICANTE/ALACANT;ELDA;FONDO;SUBURBANA;CERCA DE UNA CIUDAD;UF;RESIDENCIAL/COMERCIAL;AV. DE CATALUNYA, 50
3065006;3;65;6;ES1624A;CCAA Com. Valenciana;ELX-AGROALIMENTARI;27/06/2002;;-0.68278;38.24222;44;COMUNIDAD VALENCIANA;ALICANTE/ALACANT;ELCHE/ELX;FONDO;SUBURBANA;REGIONAL;RF;NATURALEZA;PARQUE NATURAL DE MONFRAGÚE
3065007;3;65;7;ES1849A;CCAA Com. Valenciana;ELX-PARC DE BOMBERS;17/07/2007;;-0.7175;38.25917;99;COMUNIDAD VALENCIANA;ALICANTE/ALACANT;ELCHE/ELX;TRAFICO;URBANA;;UT;RESIDENCIAL/INDUSTRIAL;C/NAFARROA ETORBIDEA S/Nº (TOLOSA)
3099002;3;99;2;ES1677A;CCAA Com. Valenciana;ORIHUELA;01/03/2004;;-0.85278;38.08472;32;COMUNIDAD VALENCIANA;ALICANTE/ALACANT;ORIHUELA;FONDO;SUBURBANA;;ST;AGRICOLA;DEPÓSITO MUNICIPAL DE AGUA DE BOCA
3133002;3;133;2;ES2008A;CCAA Com. Valenciana;TORREVIEJA;01/01/2011;;-0.69;37.99111;10;COMUNIDAD VALENCIANA;ALICANTE/ALACANT;TORREVIEJA;TRAFICO;URBANA;;UF;RESIDENCIAL/COMERCIAL;RONDA DE LA LIBERACIÓN, S/N
12005005;12;5;5;ES1685A;CCAA Com. Valenciana;ALCORA;01/01/2004;;-0.18972;40.05194;160;COMUNIDAD VALENCIANA;CASTELLÓN/CASTELLÓ;ALCORA (L');INDUSTRIAL;URBANA;REGIONAL;RF;NATURALEZA;HELIPUERTO DE EL MAILLO
12009007;12;9;7;ES1877A;CCAA Com. Valenciana;ALMASSORA-C. P. OCHANDO;10/10/2006;;-0.05639;39.94528;27;COMUNIDAD VALENCIANA;CASTELLÓN/CASTELLÓ;ALMAZORA/ALMASSORA;INDUSTRIAL;URBANA;REGIONAL;RF;MONTAÑA;URB.LAS VIÑAS S/N (POBLADO DE IBERDROLA EN CORTES DE PALLÁS)
12028001;12;28;1;ES1687A;CCAA Com. Valenciana;BENICASSIM;01/01/2004;;0.07278;40.06222;50;COMUNIDAD VALENCIANA;CASTELLÓN/CASTELLÓ;BENICASIM/BENICÀSSIM;INDUSTRIAL;SUBURBANA;;SF;NATURALEZA;CARRER DE LA COMARCAL 601, JUNT A LES COVES DE SANT JOSEP
12032001;12;32;1;ES1688A;CCAA Com. Valenciana;BURRIANA;01/01/2004;;-0.065;39.89222;37;COMUNIDAD VALENCIANA;CASTELLÓN/CASTELLÓ;BURRIANA;INDUSTRIAL;RURAL;;UT;RESIDENCIAL/COMERCIAL/INDUSTRIAL;C/ LLANOPONTE, S/N
12032005;12;32;5;ES1797A;CCAA Com. Valenciana;BURRIANA RESIDENCIA;31/12/2004;;-0.08778;39.895;20;COMUNIDAD VALENCIANA;CASTELLÓN/CASTELLÓ;BURRIANA;INDUSTRIAL;URBANA;CERCA DE UNA CIUDAD;RI;RESIDENCIAL/COMERCIAL/INDUSTRIAL;COLEGIO LAS CUESTAS
12040016;12;40;16;ES1916A;CCAA Com. Valenciana;CASTELLÓ - ITC;01/01/2009;;-0.065;39.99583;30;COMUNIDAD VALENCIANA;CASTELLÓN/CASTELLÓ;CASTELLÓN DE LA PLANA/CASTELLÓ DE LA PLANA;FONDO;URBANA;;SF;RESIDENCIAL;C. DE SANT DOMÈNEC - C. D'ITÀLIA
12040009;12;40;9;ES1428A;CCAA Com. Valenciana;CASTELLÓ-ERMITA;01/10/1995;;-0.03611;39.95917;44;COMUNIDAD VALENCIANA;CASTELLÓN/CASTELLÓ;CASTELLÓN DE LA PLANA/CASTELLÓ DE LA PLANA;INDUSTRIAL;SUBURBANA;;UF;RESIDENCIAL;AVDA.LA GAVIA - AVDA.LAS SUERTES
12040010;12;40;10;ES1445A;CCAA Com. Valenciana;CASTELLÓ-GRAU;20/03/1996;;0.01056;39.98194;10;COMUNIDAD VALENCIANA;CASTELLÓN/CASTELLÓ;CASTELLÓN DE LA PLANA/CASTELLÓ DE LA PLANA;INDUSTRIAL;SUBURBANA;;UF;RESIDENCIAL;C\MOMPEAN
12040015;12;40;15;ES1834A;CCAA Com. Valenciana;CASTELLÓ-PATRONAT D'ESPORTS;02/02/2006;;-0.02611;39.98889;18;COMUNIDAD VALENCIANA;CASTELLÓN/CASTELLÓ;CASTELLÓN DE LA PLANA/CASTELLÓ DE LA PLANA;TRAFICO;URBANA;;UT;RESIDENCIAL/COMERCIAL;TORNEO-CARTUJA
12040008;12;40;8;ES1386A;CCAA Com. Valenciana;CASTELLÓ-PENYETA;15/07/1994;;-0.05722;40.01278;106;COMUNIDAD VALENCIANA;CASTELLÓN/CASTELLÓ;CASTELLÓN DE LA PLANA/CASTELLÓ DE LA PLANA;INDUSTRIAL;SUBURBANA;;SF;AGRICOLA;PARQUE EL BOTICARIO
12046001;12;46;1;ES1689A;CCAA Com. Valenciana;CIRAT;01/03/2004;;-0.46833;40.05417;466;COMUNIDAD VALENCIANA;CASTELLÓN/CASTELLÓ;CIRAT;FONDO;RURAL;;SI;INDUSTRIAL;SUBESTACION DE TORREARENILLAS( FRENTE A REFINERIA LA RÁBIDA)
12093004;12;93;4;ES1437A;CCAA Com. Valenciana;CORATXAR;01/01/1984;;0.08472;40.69167;1200;COMUNIDAD VALENCIANA;CASTELLÓN/CASTELLÓ;POBLA DE BENIFASSÀ (LA);INDUSTRIAL;RURAL;REMOTA;RFREM;NATURALEZA;PENÍNSULA DE LA MOLA
12126003;12;126;3;ES1969A;CCAA Com. Valenciana;LA VALL D'UIXÓ;01/04/2010;;-0.24444;39.82361;250;COMUNIDAD VALENCIANA;CASTELLÓN/CASTELLÓ;VALL D'UIXÓ (LA);FONDO;SUBURBANA;;SI;RESIDENCIAL/INDUSTRIAL;CTRA. DE MAHON A CIUDADELA, KM 1
12005004;12;5;4;ES1621A;CCAA Com. Valenciana;L'ALCORA-PM;06/04/2002;;-0.20639;40.06861;175;COMUNIDAD VALENCIANA;CASTELLÓN/CASTELLÓ;ALCORA (L');INDUSTRIAL;URBANA;;SF;INDUSTRIAL/NATURALEZA;PARQUE DE BELLVER
12080007;12;80;7;ES1441A;CCAA Com. Valenciana;MORELLA;01/01/1996;;-0.09111;40.63722;1150;COMUNIDAD VALENCIANA;CASTELLÓN/CASTELLÓ;MORELLA;FONDO;RURAL;CERCA DE UNA CIUDAD;RF;NATURALEZA;CAMINO DEL NEVAZO
12084003;12;84;3;ES1387A;CCAA Com. Valenciana;ONDA;20/07/1994;;-0.23333;39.96278;163;COMUNIDAD VALENCIANA;CASTELLÓN/CASTELLÓ;ONDA;INDUSTRIAL;SUBURBANA;;SF;RESIDENCIAL/INDUSTRIAL;ESCUELA
12099001;12;99;1;ES1542A;CCAA Com. Valenciana;SANT JORDI;01/09/1999;;0.37278;40.55472;181;COMUNIDAD VALENCIANA;CASTELLÓN/CASTELLÓ;SAN JORGE;FONDO;RURAL;;SI;RESIDENCIAL/INDUSTRIAL;CENTRAL HIDROELECTRICA
12120001;12;120;1;ES1690A;CCAA Com. Valenciana;TORRE ENDOMENECH;01/02/2004;;-0.07889;40.26944;259;COMUNIDAD VALENCIANA;CASTELLÓN/CASTELLÓ;TORRE ENDOMÉNECH;FONDO;RURAL;;UF;RESIDENCIAL;GLORIETA PRADERA DE VAQUERIZAS 9
12124001;12;124;1;ES1918A;CCAA Com. Valenciana;VALL D'ALBA PM;02/05/2008;;-0.03444;40.175;305;COMUNIDAD VALENCIANA;CASTELLÓN/CASTELLÓ;VALL D'ALBA;INDUSTRIAL;URBANA;;UI;RESIDENCIAL;PLAZA AMERICA
12129001;12;129;1;ES1435A;CCAA Com. Valenciana;VILAFRANCA;01/01/1996;;-0.24917;40.41667;1125;COMUNIDAD VALENCIANA;CASTELLÓN/CASTELLÓ;VILLAFRANCA DEL CID;FONDO;SUBURBANA;REGIONAL;RI;AGRICOLA/NATURALEZA;ALDEA DE SAÁ,  AS  PONTES
12135004;12;135;4;ES1622A;CCAA Com. Valenciana;VILA-REAL-PM;06/04/2002;;-0.10583;39.94167;60;COMUNIDAD VALENCIANA;CASTELLÓN/CASTELLÓ;VILLARREAL/VILA-REAL;INDUSTRIAL;URBANA;;SI;RESIDENCIAL/INDUSTRIAL;C/ DE L'ALGUER, LES CASES D'ALCANAR
12138001;12;138;1;ES2036A;CCAA Com. Valenciana;VINARÒS PLANTA;01/01/2013;;0.425;40.54611;105;COMUNIDAD VALENCIANA;CASTELLÓN/CASTELLÓ;VINARÒS;INDUSTRIAL;RURAL;;SF;RESIDENCIAL;AVDA. LA GUARDIA
12138002;12;138;2;ES2037A;CCAA Com. Valenciana;VINARÒS PLATAFORMA;01/01/2013;;0.70917;40.38333;22;COMUNIDAD VALENCIANA;CASTELLÓN/CASTELLÓ;VINARÒS;INDUSTRIAL;RURAL;;SF;RESIDENCIAL;POLIDEPORTIVO MUNICIPAL C/MORERAS
12140002;12;140;2;ES1691A;CCAA Com. Valenciana;VIVER;01/01/2004;;-0.60333;39.93056;616;COMUNIDAD VALENCIANA;CASTELLÓN/CASTELLÓ;VIVER;FONDO;SUBURBANA;;SI;RESIDENCIAL/COMERCIAL/INDUSTRIAL;C/ LA ESPERANZA, S/N
12141002;12;141;2;ES1543A;CCAA Com. Valenciana;ZORITA;01/09/1999;;-0.16944;40.735;619;COMUNIDAD VALENCIANA;CASTELLÓN/CASTELLÓ;ZORITA DEL MAESTRAZGO;FONDO;RURAL;;UF;RESIDENCIAL/COMERCIAL;C/ CIFUENTES, 26 (CENTRO SOCIAL CIFUENTES)
46010001;46;10;1;ES1911A;CCAA Com. Valenciana;ALBALAT DELS TARONGERS;18/02/2009;;-0.33667;39.70528;320;COMUNIDAD VALENCIANA;VALENCIA;ALBALAT DELS TARONGERS;INDUSTRIAL;SUBURBANA;;SF;RESIDENCIAL/INDUSTRIAL;C/ CURTIDORES,2 (POLIGONO INDUSTRIAL LA VEREDILLA)
46028001;46;28;1;ES2018A;CCAA Com. Valenciana;ALGAR DE PALÀNCIA;12/03/2012;;-0.35917;39.78222;200;COMUNIDAD VALENCIANA;VALENCIA;ALGAR DE PALANCIA;FONDO;RURAL;;UI;RESIDENCIAL/INDUSTRIAL;C/ FAYNA ESQ AVDA MARÍTIMA
46017002;46;17;2;ES1617A;CCAA Com. Valenciana;ALZIRA;09/11/2001;;-0.45778;39.15;60;COMUNIDAD VALENCIANA;VALENCIA;ALZIRA;FONDO;SUBURBANA;;SF;RESIDENCIAL;PARQUE PERIURBANO DE PORZUNA
46062001;46;62;1;ES1709A;CCAA Com. Valenciana;BENIGANIM;05/01/2004;;-0.44139;38.93472;195;COMUNIDAD VALENCIANA;VALENCIA;BENIGÁNIM;FONDO;SUBURBANA;;UI;RESIDENCIAL/COMERCIAL/INDUSTRIAL;C/ JULIO DE PABLO, PARQUE CROSS MALIAÑO
46077006;46;77;6;ES1886A;CCAA Com. Valenciana;BUÑOL CEMEX;21/05/2007;;-0.78389;39.42722;400;COMUNIDAD VALENCIANA;VALENCIA;BUÑOL;INDUSTRIAL;SUBURBANA;REGIONAL;RF;NATURALEZA;CARRETERA LOS TOJOS - COLSA, S/N
46078004;46;78;4;ES1625A;CCAA Com. Valenciana;BURJASSOT - FACULTATS;01/07/2002;;-0.41778;39.50944;25;COMUNIDAD VALENCIANA;VALENCIA;BURJASSOT;TRAFICO;URBANA;;UT;RESIDENCIAL/COMERCIAL;C/ALCALÁ ESQUINA C/ O'DONNELL
46095001;46;95;1;ES1670A;CCAA Com. Valenciana;CAUDETE DE LAS FUENTES;03/02/2004;;-1.28139;39.55861;804;COMUNIDAD VALENCIANA;VALENCIA;CAUDETE DE LAS FUENTES;FONDO;RURAL;;UT;RESIDENCIAL/COMERCIAL;PL. DE LA UNIVERSITAT - C. DE BALMES
46099001;46;99;1;ES2001A;CCAA Com. Valenciana;CORTES DE PALLÁS;14/07/2010;;-0.93444;39.26083;493;COMUNIDAD VALENCIANA;VALENCIA;CORTES DE PALLÁS;FONDO;RURAL;;SF;RESIDENCIAL/COMERCIAL;PARC DEL MIL·LENI (C. DE LA LLENYA - C. DE L'AIGUA)
46131002;46;131;2;ES1182A;CCAA Com. Valenciana;GANDÍA;01/01/1992;;-0.19;38.96667;22;COMUNIDAD VALENCIANA;VALENCIA;GANDIA;TRAFICO;URBANA;;SI;RESIDENCIAL/COMERCIAL/INDUSTRIAL;ESTACIÓ DE RENFE
46184002;46;184;2;ES1711A;CCAA Com. Valenciana;ONTINYENT;01/01/2004;;-0.69722;38.78806;510;COMUNIDAD VALENCIANA;VALENCIA;ONTINYENT;FONDO;SUBURBANA;;UT;RESIDENCIAL;AV. DE LA GENERALITAT, 70
46190005;46;190;5;ES1826A;CCAA Com. Valenciana;PATERNA-CEAM;03/12/2005;;-0.46083;39.55139;122;COMUNIDAD VALENCIANA;VALENCIA;PATERNA;FONDO;SUBURBANA;CERCA DE UNA CIUDAD;RI;RESIDENCIAL/INDUSTRIAL/AGRICOLA;AV. DEL PRIORAT, S/N
46102002;46;102;2;ES1181A;CCAA Com. Valenciana;QUART DE POBLET;01/01/1992;;-0.44722;39.48111;41;COMUNIDAD VALENCIANA;VALENCIA;QUART DE POBLET;TRAFICO;URBANA;;UF;RESIDENCIAL;CAMPUS UNIVERSITARIO AVDA. DE ELVAS S/N
46220010;46;220;10;ES1884A;CCAA Com. Valenciana;SAGUNT CEA;01/01/2008;;-0.26583;39.63417;3;COMUNIDAD VALENCIANA;VALENCIA;SAGUNTO/SAGUNT;INDUSTRIAL;SUBURBANA;;UI;RESIDENCIAL;PASEO DEL CAUCE S/N
46220003;46;220;3;ES1185A;CCAA Com. Valenciana;SAGUNT PORT;01/01/1992;;-0.23472;39.66722;10;COMUNIDAD VALENCIANA;VALENCIA;SAGUNTO/SAGUNT;TRAFICO;URBANA;CERCA DE UNA CIUDAD;RI;RESIDENCIAL;PALACIOS DEL SIL
46220009;46;220;9;ES1765A;CCAA Com. Valenciana;SAGUNT-NORD;19/10/2005;;-0.27889;39.68472;54;COMUNIDAD VALENCIANA;VALENCIA;SAGUNTO/SAGUNT;FONDO;SUBURBANA;REMOTA;RFREM;NATURALEZA;ALTIPLANICIE DEL VIVERO
46242001;46;242;1;ES1917A;CCAA Com. Valenciana;TORREBAJA;17/08/2006;;-1.25389;40.09944;728;COMUNIDAD VALENCIANA;VALENCIA;TORREBAJA;FONDO;RURAL;;UF;RESIDENCIAL;C/ VIZCONDE DE LOS ASILOS - C/ ARTURO SORIA
46250047;46;250;47;ES1912A;CCAA Com. Valenciana;VALÈNCIA - AVD. FRANCIA;01/01/2009;;-0.34278;39.4575;7;COMUNIDAD VALENCIANA;VALENCIA;VALENCIA;TRAFICO;URBANA;CERCA DE UNA CIUDAD;RF;AGRICOLA;FINCA LOS REVENTONES.CARRETERA CARTAYA-TARIQUEJO, KM 3
46250050;46;250;50;ES1970A;CCAA Com. Valenciana;VALÈNCIA - BULEVARD SUD;24/05/2010;;-0.39639;39.45028;15;COMUNIDAD VALENCIANA;VALENCIA;VALENCIA;TRAFICO;URBANA;;UT;RESIDENCIAL/COMERCIAL/INDUSTRIAL;AV. HERMANOS FELGUEROSO, S/N
46250048;46;250;48;ES1926A;CCAA Com. Valenciana;VALÈNCIA - MOLÍ DEL SOL;06/08/2009;;-0.40833;39.48111;11;COMUNIDAD VALENCIANA;VALENCIA;VALENCIA;TRAFICO;URBANA;;UT;RESIDENCIAL/COMERCIAL;AV. DEL MARQUÈS DE MONT-ROIG - C. D'AUSIÀS MARCH
46250051;46;250;51;ES2052A;CCAA Com. Valenciana;VALENCIA-ALBUFERA;01/01/2014;;-0.31861;39.31556;1;COMUNIDAD VALENCIANA;VALENCIA;VALENCIA;FONDO;RURAL;;SI;INDUSTRIAL;POLIESPORTIU
46250030;46;250;30;ES1239A;CCAA Com. Valenciana;VALÈNCIA-PISTA DE SILLA;01/07/1992;;-0.37583;39.45611;11;COMUNIDAD VALENCIANA;VALENCIA;VALENCIA;TRAFICO;URBANA;;SF;RESIDENCIAL;CAMINO DE LOS CALEROS 13
46250046;46;250;46;ES1885A;CCAA Com. Valenciana;VALÈNCIA-POLITÈCNIC;04/04/2008;;-0.33639;39.48028;7;COMUNIDAD VALENCIANA;VALENCIA;VALENCIA;FONDO;URBANA;;UF;RESIDENCIAL;PASEO RENOVALES
46250043;46;250;43;ES1619A;CCAA Com. Valenciana;VALÈNCIA-VIVERS;01/01/2002;;-0.36833;39.47806;11;COMUNIDAD VALENCIANA;VALENCIA;VALENCIA;FONDO;URBANA;;SI;RESIDENCIAL/COMERCIAL/INDUSTRIAL;UNKNOWN
46256001;46;256;1;ES2019A;CCAA Com. Valenciana;VILAMARXANT;01/01/2012;;-0.62556;39.56472;510;COMUNIDAD VALENCIANA;VALENCIA;VILAMARXANT;FONDO;SUBURBANA;;SF;RESIDENCIAL;PLAÇA DELS HORTS, Nº 1
46258001;46;258;1;ES1671A;CCAA Com. Valenciana;VILLAR DEL ARZOBISPO;01/03/2004;;-0.83194;39.70806;430;COMUNIDAD VALENCIANA;VALENCIA;VILLAR DEL ARZOBISPO;FONDO;RURAL;;SI;COMERCIAL/INDUSTRIAL;EL CROS - MERCAT (C. DE CARRASCO I FORMIGUERA - VIA SÈRGIA)
46263999;46;263;999;ES0012R;EMEP/VAG/CAMP;ZARRA;11/06/1997;;-1.10111;39.08278;885;COMUNIDAD VALENCIANA;VALENCIA;ZARRA;FONDO;RURAL;REGIONAL;RF;RESIDENCIAL/NATURALEZA;DIPÒSIT D'AIGUA
6015001;6;15;1;ES1601A;CCAA Extremadura;BADAJOZ;31/05/2001;;-7.01145;38.88763;390;EXTREMADURA;BADAJOZ;BADAJOZ;FONDO;URBANA;REGIONAL;RF;NATURALEZA;CAN JORDÀ
6016999;6;16;999;ES0011R;EMEP/VAG/CAMP;BARCARROTA;03/03/1999;;-6.92361;38.47278;393;EXTREMADURA;BADAJOZ;BARCARROTA;FONDO;RURAL;REGIONAL;RF;RESIDENCIAL/NATURALEZA;AJUNTAMENT
6083001;6;83;1;ES1819A;CCAA Extremadura;MERIDA;27/07/2006;;-6.33806;38.9075;214;EXTREMADURA;BADAJOZ;MÉRIDA;FONDO;URBANA;REGIONAL;RI;AGRICOLA;PUIGMORENO
6158001;6;158;1;ES1820A;CCAA Extremadura;ZAFRA;14/06/2006;;-6.395;38.42917;551;EXTREMADURA;BADAJOZ;ZAFRA;FONDO;SUBURBANA;;UF;RESIDENCIAL/COMERCIAL;C/MARQUÉS DE MENDIGORRÍA, S/N (PARQUE DE LA CRUZ)
10037001;10;37;1;ES1615A;CCAA Extremadura;CÁCERES;01/11/2001;;-6.36028;39.47278;389;EXTREMADURA;CÁCERES;CÁCERES;FONDO;URBANA;;UI;RESIDENCIAL/INDUSTRIAL;C/ DAIMIEL
10182001;10;182;1;ES1616A;CCAA Extremadura;MONFRAGÜE;01/11/2001;;-5.93972;39.84917;376;EXTREMADURA;CÁCERES;TORIL;FONDO;RURAL;REMOTA;RFREM;NATURALEZA;INSTALACIONES DEL INSTITUTO GEOFÍSICO
10148001;10;148;1;ES1997A;CCAA Extremadura;PLASENCIA;01/01/2011;;-6.14722;40.07778;181;EXTREMADURA;CÁCERES;PLASENCIA;FONDO;SUBURBANA;;UF;RESIDENCIAL/COMERCIAL;C/ LA FLOR, S/N (COLEGIO PUBLICO LA PAZ)
15036004;15;36;4;ES1960A;CCAA Galicia;A CABANA;31/12/2008;;-8.25028;43.49278;13;GALICIA;CORUÑA (A);FERROL;FONDO;SUBURBANA;;UI;RESIDENCIAL/COMERCIAL/INDUSTRIAL;C/ ANCHA (FRENTE SEGURIDAD SOCIAL)
36038008;36;38;8;ES1366A;CCAA Galicia;AREEIRO;01/01/1994;;-8.67028;42.40472;40;GALICIA;PONTEVEDRA;PONTEVEDRA;INDUSTRIAL;RURAL;REGIONAL;RF;RESIDENCIAL/INDUSTRIAL;ELS DEDALTS
36057019;36;57;19;ES1137A;CCAA Galicia;ARENAL;01/06/1991;;-8.74194;42.21917;53;GALICIA;PONTEVEDRA;VIGO;TRAFICO;URBANA;CERCA DE UNA CIUDAD;SF;RESIDENCIAL/COMERCIAL/INDUSTRIAL;HOSPITAL COMARCAL
15059004;15;59;4;ES2049A;CCAA Galicia;BUSCÁS;01/01/2013;;-8.35222;43.11639;408;GALICIA;CORUÑA (A);ORDES;INDUSTRIAL;RURAL;;SF;AGRICOLA;POLIDEPORTIVO LAS FUENTEZUELAS
36041001;36;41;1;ES0961A;CCAA Galicia;CAMPELO;01/01/1990;;-8.67361;42.43417;20;GALICIA;PONTEVEDRA;POIO;INDUSTRIAL;RURAL;;UT;RESIDENCIAL/COMERCIAL;C.P. TIERNO GALVÁN
15023004;15;23;4;ES2005A;CCAA Galicia;CEE;30/06/2011;;-9.18611;42.95361;38;GALICIA;CORUÑA (A);CEE;INDUSTRIAL;SUBURBANA;;UI;RESIDENCIAL/COMERCIAL/INDUSTRIAL;LABORATORIO DE MEDIO AMBIENTE AMBIENTE DE GALICIA
15005012;15;5;12;ES1907A;CCAA Galicia;CENTRO CIVICO;01/04/2008;;-8.50556;43.30222;100;GALICIA;CORUÑA (A);ARTEIXO;INDUSTRIAL;SUBURBANA;;UT;RESIDENCIAL/INDUSTRIAL;C/PERDILLEGI S/Nº AZPEITIA 
15024001;15;24;1;ES1035A;CCAA Galicia;CERCEDA;01/11/1990;;-8.46861;43.18583;340;GALICIA;CORUÑA (A);CERCEDA;INDUSTRIAL;SUBURBANA;;UI;RESIDENCIAL/COMERCIAL/INDUSTRIAL;TF-5 ESQ TF -194
15078007;15;78;7;ES1868A;CCAA Galicia;COMPOSTELA;01/12/2007;;-8.55917;42.87583;220;GALICIA;CORUÑA (A);SANTIAGO DE COMPOSTELA;FONDO;URBANA;;UT;RESIDENCIAL;C/JOSE GUTIERREZ ABASCAL
15030001;15;30;1;ES1138A;CCAA Galicia;CORLAB 1;01/01/1980;;-8.41889;43.36778;35;GALICIA;CORUÑA (A);CORUÑA (A);TRAFICO;URBANA;;ST;RESIDENCIAL/INDUSTRIAL;C/ FREDERICA MONTSENY, S/N
15034008;15;34;8;ES2006A;CCAA Galicia;DUMBRIA;30/06/2011;;-9.11889;43.00889;220;GALICIA;CORUÑA (A);DUMBRÍA;INDUSTRIAL;SUBURBANA;;SF;RESIDENCIAL/INDUSTRIAL;CEAM. C/ CHARLES DARWIN, 14. PARQUE TECNOLSGICO
36057021;36;57;21;ES1440A;CCAA Galicia;ESTACION 1 (ESTE);01/10/1995;;-8.73694;42.21028;12;GALICIA;PONTEVEDRA;VIGO;FONDO;URBANA;;UT;RESIDENCIAL/COMERCIAL;C/ TOSSAL, S/N
36057022;36;57;22;ES1439A;CCAA Galicia;ESTACION 2 (OESTE);01/10/1995;;-8.74694;42.20278;26;GALICIA;PONTEVEDRA;VIGO;INDUSTRIAL;SUBURBANA;;SI;RESIDENCIAL;CNO. DEL HONDO BUENO (RABASA)
15070006;15;70;6;ES0094A;CCAA Galicia;FRAGA REDONDA (F-2);01/01/1976;;-7.98889;43.40556;480;GALICIA;CORUÑA (A);PONTES DE GARCÍA RODRÍGUEZ (AS);INDUSTRIAL;RURAL;REGIONAL;RF;AGRICOLA;CTRA.PINÓS-YECLA CV-836 KM.0
32054004;32;54;4;ES1096A;CCAA Galicia;GOMEZ FRANQUEIRA;01/01/1989;;-7.87694;42.35194;132;GALICIA;OURENSE;OURENSE;TRAFICO;URBANA;REMOTA;RFREM;NATURALEZA;PARQUE SIERRA NORTE
15030021;15;30;21;ES1798A;CCAA Galicia;LA GRELA;01/01/1980;;-8.42472;43.35417;65;GALICIA;CORUÑA (A);CORUÑA (A);INDUSTRIAL;URBANA;;UT;RESIDENCIAL/COMERCIAL;AVENIDA DE FRANCIA,60 
15005009;15;5;9;ES1659A;CCAA Galicia;LAÑAS;31/12/1992;;-8.51889;43.29528;100;GALICIA;CORUÑA (A);ARTEIXO;INDUSTRIAL;RURAL;;UF;RESIDENCIAL/COMERCIAL;PL. DE LA FONT DEL LLEÓ, 11
27033001;27;33;1;ES1285A;CCAA Galicia;LOUSEIRAS (B-2);01/01/1980;;-7.74028;43.53611;540;GALICIA;LUGO;MURAS;INDUSTRIAL;RURAL;;UT;RESIDENCIAL/COMERCIAL/INDUSTRIAL;PLAZA DE LA GUITARRA
27028005;27;28;5;ES1905A;CCAA Galicia;LUGO-FINGOY;01/07/2008;;-7.55;42.99806;450;GALICIA;LUGO;LUGO;TRAFICO;URBANA;;UF;RESIDENCIAL/COMERCIAL;CALLE DE LA HISTORIA, S/N
15070010;15;70;10;ES1958A;CCAA Galicia;MACIÑEIRA;31/12/2008;;-7.91806;43.44528;407;GALICIA;CORUÑA (A);PONTES DE GARCÍA RODRÍGUEZ (AS);INDUSTRIAL;RURAL;;SF;RESIDENCIAL;PL. DE LA VILA, 1
15070002;15;70;2;ES0201A;CCAA Galicia;MAGDALENA (B-1);01/01/1976;;-7.84722;43.45;363;GALICIA;CORUÑA (A);PONTES DE GARCÍA RODRÍGUEZ (AS);INDUSTRIAL;SUBURBANA;CERCA DE UNA CIUDAD;SI;RESIDENCIAL/COMERCIAL/INDUSTRIAL;AV. DE VILAFRANCA DEL PENEDÈS, 26 
15070011;15;70;11;ES1959A;CCAA Galicia;MARRAXÓN;31/12/2008;;-7.84;43.47083;547;GALICIA;CORUÑA (A);PONTES DE GARCÍA RODRÍGUEZ (AS);INDUSTRIAL;RURAL;CERCA DE UNA CIUDAD;RI;RESIDENCIAL/INDUSTRIAL;C. DE JESÚS, 95
36038005;36;38;5;ES1464A;CCAA Galicia;MOLLABAO;01/01/1980;;-8.65694;42.42194;15;GALICIA;PONTEVEDRA;PONTEVEDRA;TRAFICO;URBANA;;SF;DESCONOCIDO;POLIDEPORTIVO NORTE DEL PALANCIA
27065004;27;65;4;ES1359A;CCAA Galicia;MOURENCE (C-9);01/01/1994;;-7.69306;43.31278;465;GALICIA;LUGO;VILALBA;INDUSTRIAL;RURAL;;UI;RESIDENCIAL/INDUSTRIAL;C/ ASDRUBAL (ANEXO AL INSTITUTO NRO. 3)
27038003;27;38;3;ES1174A;CCAA Galicia;NNW;01/12/1991;;-7.45194;42.72611;620;GALICIA;LUGO;OUROL;INDUSTRIAL;RURAL;;UF;RESIDENCIAL;COLEGIO PÚBLICO FEDERICO GARCÍA LORCA
15057999;15;57;999;ES0005R;EMEP/VAG/CAMP;NOIA;01/01/1992;;-8.92361;42.72056;685;GALICIA;CORUÑA (A);NOIA;FONDO;RURAL;;UT;RESIDENCIAL/COMERCIAL;EMBARCADERO DE ERANDIO - CARRETERA LAS ARENAS
27058999;27;58;999;ES0016R;EMEP/VAG/CAMP;O SAVIÑAO;31/01/2001;;-7.70472;42.63472;506;GALICIA;LUGO;SAVIÑAO (O);FONDO;RURAL;;SI;RESIDENCIAL;UNKNOWN
15026001;15;26;1;ES1307A;CCAA Galicia;PARAXÓN;01/01/1993;;-8.18833;43.17389;380;GALICIA;CORUÑA (A);CESURAS;INDUSTRIAL;RURAL;;UI;INDUSTRIAL;ESCUELA POLITÉCNICA SUPERIOR
15005011;15;5;11;ES1234A;CCAA Galicia;PASTORIZA-REPSOL;01/01/1990;;-8.47194;43.33528;240;GALICIA;CORUÑA (A);ARTEIXO;INDUSTRIAL;RURAL;;UT;RESIDENCIAL/COMERCIAL;C/HOGAR PROPIO  Nº7 -INST FP SUPERIOR (BARAKALDO)
15005013;15;5;13;ES1981A;CCAA Galicia;PLAZA PASTORIZA;10/09/2010;;-8.46722;43.34722;20;GALICIA;CORUÑA (A);ARTEIXO;INDUSTRIAL;SUBURBANA;;SI;RESIDENCIAL/INDUSTRIAL;C/ BALLESTAS 8-10 GUARNIZO
15059002;15;59;2;ES0777A;CCAA Galicia;PRESA DE VILLAGUDÍN;01/01/1980;;-8.49472;43.095;270;GALICIA;CORUÑA (A);ORDES;INDUSTRIAL;RURAL;REGIONAL;RF;NATURALEZA;CASA DEL PARQUE FUENTONA
15024005;15;24;5;ES2050A;CCAA Galicia;RODÍS;01/01/2013;;-8.26111;43.2238;398;GALICIA;CORUÑA (A);CERCEDA;INDUSTRIAL;RURAL;;SI;RESIDENCIAL/INDUSTRIAL;C. DE GAUDÍ, S/N
15017002;15;17;2;ES0901A;CCAA Galicia;S. VICENTE DE VIGO;01/01/1980;;-8.31722;43.235;160;GALICIA;CORUÑA (A);CAMBRE;INDUSTRIAL;RURAL;;SI;RESIDENCIAL;POLIDEPORTIVO SAN RAFAEL
15005010;15;5;10;ES1467A;CCAA Galicia;SORRIZO;01/02/1997;;-8.57167;43.30472;77;GALICIA;CORUÑA (A);ARTEIXO;INDUSTRIAL;RURAL;CERCA DE UNA CIUDAD;RF;INDUSTRIAL;PL. DEL POBLE
27038004;27;38;4;ES1175A;CCAA Galicia;SUR;01/12/1991;;-7.44944;42.71528;100;GALICIA;LUGO;OUROL;INDUSTRIAL;RURAL;;SI;RESIDENCIAL/AGRICOLA;C/ SAN BARTOLOMÉ SN (PRRÓXIMO A TF 28)
15055003;15;55;3;ES2039A;CCAA Galicia;XUBIA (MEGASA);24/07/2013;;-8.15019;43.51981;20;GALICIA;CORUÑA (A);NEDA;INDUSTRIAL;SUBURBANA;;UI;RESIDENCIAL;AVD. DEL TITAN S/Nº (FRENTE A LA MERCEDES BENZ)
28005002;28;5;2;ES1563A;CCAA Madrid;ALCALÁ DE HENARES;16/03/2000;;-3.37778;40.47917;589;MADRID;MADRID;ALCALÁ DE HENARES;TRAFICO;URBANA;;ST;RESIDENCIAL/COMERCIAL/INDUSTRIAL;C. OLÍMPIC, S/N
28006004;28;6;4;ES1564A;CCAA Madrid;ALCOBENDAS;19/01/2000;;-3.64472;40.54056;671;MADRID;MADRID;ALCOBENDAS;INDUSTRIAL;URBANA;;SI;RESIDENCIAL/INDUSTRIAL;C/ ÀLABA (BARRI ST. JOSEP)
28007004;28;7;4;ES1890A;CCAA Madrid;ALCORCÓN;11/09/2008;;-3.83389;40.34194;693;MADRID;MADRID;ALCORCÓN;FONDO;URBANA;;UT;RESIDENCIAL/COMERCIAL;ASSEMBLEA DE CATALUNYA, 9-12
28009001;28;9;1;ES1838A;CCAA Madrid;ALGETE;01/01/2007;;-3.50306;40.59333;721;MADRID;MADRID;ALGETE;FONDO;SUBURBANA;;ST;RESIDENCIAL/COMERCIAL;C. DEL MAS DEL TALLAPEDRA - C. DEL MAS DELS OSSOS
28013002;28;13;2;ES1611A;CCAA Madrid;ARANJUEZ;06/10/2001;;-3.59028;40.04361;512;MADRID;MADRID;ARANJUEZ;FONDO;SUBURBANA;;UT;RESIDENCIAL/COMERCIAL;PARQUE JUDIZMENDI S/Nº (VITORIA-GASTEIZ)
28014002;28;14;2;ES1801A;CCAA Madrid;ARGANDA DEL REY;01/06/2006;;-3.45889;40.30083;584;MADRID;MADRID;ARGANDA DEL REY;INDUSTRIAL;URBANA;;ST;RESIDENCIAL/INDUSTRIAL;C/IBARRE, PABELLÓN 1, BARRIO SANGRONIZ
28079016;28;79;16;ES0124A;Ayto Madrid;ARTURO SORIA;01/01/1978;;-3.63917;40.44;698;MADRID;MADRID;MADRID;FONDO;URBANA;REGIONAL;RI;AGRICOLA;DEPSSITO MUNICIPAL
28079027;28;79;27;ES1645A;Ayto Madrid;BARAJAS - PUEBLO;31/12/2002;;-3.575;40.47472;631;MADRID;MADRID;MADRID;FONDO;URBANA;DESCONOCIDO;UT;RESIDENCIAL/COMERCIAL/INDUSTRIAL;PARQUE DE LA CARCAVILLA
28079039;28;79;39;ES1521A;Ayto Madrid;BARRIO DEL PILAR;01/05/1998;;-3.71139;40.47833;673;MADRID;MADRID;MADRID;TRAFICO;URBANA;CERCA DE UNA CIUDAD;RF;RESIDENCIAL/INDUSTRIAL;REPETIDOR
28079024;28;79;24;ES1193A;Ayto Madrid;CASA DE CAMPO;01/01/1992;;-3.74917;40.42;645;MADRID;MADRID;MADRID;FONDO;SUBURBANA;;ST;INDUSTRIAL;CRA. DE LA MINA, S/N
28079048;28;79;48;ES1938A;Ayto Madrid;CASTELLANA;01/02/2010;;-3.69028;40.43972;676;MADRID;MADRID;MADRID;TRAFICO;URBANA;CERCA DE UNA CIUDAD;SI;RESIDENCIAL/COMERCIAL/INDUSTRIAL;MERIÑÁN
28079044;28;79;44;ES1893A;Ayto Madrid;CENTRO CULTURAL ALFREDO KRAUSS;30/01/2009;;-3.72111;40.49083;669;MADRID;MADRID;MADRID;FONDO;URBANA;;SF;RESIDENCIAL;CAMP DE FUTBOL DE LA ZONA ESPORTIVA
28079061;28;79;61;ES1998A;Ayto Madrid;CENTRO INTEGRADO ARGANZUELA;01/01/2010;;-3.695;40.4025;600;MADRID;MADRID;MADRID;FONDO;URBANA;;SI;AGRICOLA;ENTRE INVERNADEROS
28047002;28;47;2;ES1803A;CCAA Madrid;COLLADO VILLALBA;31/05/2006;;-4.01333;40.63389;873;MADRID;MADRID;COLLADO VILLALBA;TRAFICO;URBANA;CERCA DE UNA CIUDAD;RI;INDUSTRIAL;POLÍGONO INDUSTRIAL EL CERRO S/N
28045002;28;45;2;ES1613A;CCAA Madrid;COLMENAR VIEJO;06/10/2001;;-3.77222;40.66639;905;MADRID;MADRID;COLMENAR VIEJO;TRAFICO;URBANA;;SI;RESIDENCIAL/INDUSTRIAL;C. DE RIBOT (POLIESPORTIU)
28049003;28;49;3;ES1869A;CCAA Madrid;COSLADA;05/06/2007;;-3.54583;40.43;594;MADRID;MADRID;COSLADA;TRAFICO;URBANA;;SI;RESIDENCIAL/INDUSTRIAL;C. DEL MONTSANT, S/N
28079038;28;79;38;ES1525A;Ayto Madrid;CUATRO CAMINOS-PABLO IGLESIAS;01/11/1998;;-3.70639;40.44528;699;MADRID;MADRID;MADRID;TRAFICO;URBANA;REGIONAL;RF;INDUSTRIAL/NATURALEZA;CTRA SOLLER-BUNYOLA(ALTURA KM 13)
28016001;28;16;1;ES1802A;CCAA Madrid;EL ATAZAR;01/09/2006;;-3.46667;40.91028;995;MADRID;MADRID;ATAZAR (EL);FONDO;RURAL;DESCONOCIDO;UF;RESIDENCIAL;C/ CANARIAS,  17
28079058;28;79;58;ES1945A;Ayto Madrid;EL PARDO;01/12/2009;;-3.77444;40.51806;700;MADRID;MADRID;MADRID;FONDO;SUBURBANA;;UF;RESIDENCIAL;URBANIZACIÓN NUEVA
28079054;28;79;54;ES1941A;Ayto Madrid;ENSANCHE DE VALLECAS;11/12/2009;;-3.61194;40.37278;630;MADRID;MADRID;MADRID;FONDO;URBANA;;ST;RESIDENCIAL/COMERCIAL/INDUSTRIAL;UNKNOWN
28079008;28;79;8;ES0118A;Ayto Madrid;ESCUELAS AGUIRRE;01/01/1972;;-3.68222;40.42167;672;MADRID;MADRID;MADRID;TRAFICO;URBANA;;SI;RESIDENCIAL/AGRICOLA;LUGAR DE TROITÍN S/N
28079018;28;79;18;ES0126A;Ayto Madrid;FAROLILLO;31/03/2001;;-3.73194;40.39472;625;MADRID;MADRID;MADRID;FONDO;URBANA;REGIONAL;RI;INDUSTRIAL/NATURALEZA;UZÁS - BUSCÁS, ORDES
28079056;28;79;56;ES1943A;Ayto Madrid;FERNANDEZ LADREDA-OPORTO;18/01/2010;;-3.71861;40.38472;605;MADRID;MADRID;MADRID;TRAFICO;URBANA;REGIONAL;RI;RESIDENCIAL/COMERCIAL/AGRICOLA;LUGAR DE VIGO S/N, PAIOSACO
28058004;28;58;4;ES1565A;CCAA Madrid;FUENLABRADA;01/05/2000;;-3.80167;40.28111;674;MADRID;MADRID;FUENLABRADA;INDUSTRIAL;URBANA;REGIONAL;RF;;CREU ROJA - POLIESPORTIU MUNICIPAL
28065014;28;65;14;ES2028A;CCAA Madrid;GETAFE ;15/02/2013;;-3.71724;40.31285;622;MADRID;MADRID;GETAFE;TRAFICO;URBANA;;UT;RESIDENCIAL;PZA.FDEZ.LADREDA - AVDA.OPORTO
28067001;28;67;1;ES1805A;CCAA Madrid;GUADALIX DE LA SIERRA;31/10/2006;;-3.7025;40.78083;852;MADRID;MADRID;GUADALIX DE LA SIERRA;FONDO;RURAL;REGIONAL;RF;RESIDENCIAL;CAMP DE FUTBOL
28079059;28;79;59;ES1946A;Ayto Madrid;JUAN CARLOS I;14/12/2009;;-3.60889;40.465;669;MADRID;MADRID;MADRID;FONDO;SUBURBANA;;SF;RESIDENCIAL;CAMPO DE GOLF - C/ ISAAC ALBÉNIZ
28079045;28;79;45;ES1894A;Ayto Madrid;JUNTA MUNICIPAL DE MORATALAZ;30/12/2008;;-3.63694;40.39861;687;MADRID;MADRID;MADRID;FONDO;URBANA;;UT;RESIDENCIAL/COMERCIAL;AVENIDA DO CAMIÑO FRANCÉS S/N.
28074007;28;74;7;ES1567A;CCAA Madrid;LEGANÉS;01/05/2000;;-3.73583;40.33972;640;MADRID;MADRID;LEGANÉS;TRAFICO;URBANA;;UT;RESIDENCIAL/COMERCIAL/INDUSTRIAL;C/ ARENAL, S/N
28080003;28;80;3;ES1612A;CCAA Madrid;MAJADAHONDA;06/10/2001;;-3.86722;40.44778;722;MADRID;MADRID;MAJADAHONDA;FONDO;SUBURBANA;;UI;RESIDENCIAL/INDUSTRIAL;AVDA STA CRUZ (INMEDIACIONES C/ SAN JOSÉ)
28079047;28;79;47;ES1937A;Ayto Madrid;MENDEZ ALVARO;21/12/2009;;-3.68667;40.39806;609;MADRID;MADRID;MADRID;FONDO;URBANA;;UI;RESIDENCIAL;C/ FASNIA (PRÓXIMA A CALLE SAN JUAN DE LA CRUZ)
28079036;28;79;36;ES1426A;Ayto Madrid;MORATALAZ;31/08/1995;;-3.64528;40.40806;685;MADRID;MADRID;MADRID;TRAFICO;URBANA;;UF;RESIDENCIAL/INDUSTRIAL;C/ FRANCISCO GARCÍA TALAVERA, S/N
28092005;28;92;5;ES1568A;CCAA Madrid;MÓSTOLES;01/05/2000;;-3.87639;40.32417;650;MADRID;MADRID;MÓSTOLES;FONDO;SUBURBANA;;UF;COMERCIAL;AVDA. JOSÉ AGUIAR S/N (RESIDENCIA ESCOLAR LA GOMERA)
28102001;28;102;1;ES1806A;CCAA Madrid;ORUSCO DE TAJUÑA;29/09/2006;;-3.22222;40.28694;795;MADRID;MADRID;ORUSCO DE TAJUÑA;FONDO;RURAL;;UT;RESIDENCIAL/COMERCIAL;AVENIDA JUAN XXIII
28079050;28;79;50;ES1940A;Ayto Madrid;PLAZA CASTILLA-CANAL;01/02/2010;;-3.68833;40.46583;729;MADRID;MADRID;MADRID;TRAFICO;URBANA;;UF;COMERCIAL;C/ ARROYO DEL OLIVAR - C/ RÍO SAN LORENZO
28079004;28;79;4;ES0115A;Ayto Madrid;PLAZA DE ESPAÑA;01/01/1978;;-3.71222;40.42417;637;MADRID;MADRID;MADRID;TRAFICO;URBANA;;UF;RESIDENCIAL;CA N'ORIOL
28079035;28;79;35;ES1422A;Ayto Madrid;PLAZA DEL CARMEN;30/06/1995;;-3.70333;40.41917;657;MADRID;MADRID;MADRID;FONDO;URBANA;;SI;INDUSTRIAL;SAGUNTO
28079040;28;79;40;ES1532A;Ayto Madrid;PUENTE DE VALLECAS;30/09/1999;;-3.65139;40.38806;677;MADRID;MADRID;MADRID;FONDO;URBANA;CERCA DE UNA CIUDAD;RF;AGRICOLA;SIN DIRECCION REGISTRADA
28079011;28;79;11;ES0120A;Ayto Madrid;RAMÓN Y CAJAL;01/01/1978;;-3.67722;40.45167;708;MADRID;MADRID;MADRID;TRAFICO;URBANA;;UT;RESIDENCIAL/COMERCIAL/INDUSTRIAL;C/ ADOLFO JIMÉNEZ, S/N
28079049;28;79;49;ES1939A;Ayto Madrid;RETIRO;01/01/2010;;-3.68556;40.40972;672;MADRID;MADRID;MADRID;FONDO;URBANA;CERCA DE UNA CIUDAD;RI;AGRICOLA;POZO FACSA Nº 5 CAMÍ CARNISSERS S/N
28123002;28;123;2;ES1807A;CCAA Madrid;RIVAS-VACIAMADRID ;02/08/2006;;-3.54414;40.35853;610;MADRID;MADRID;RIVAS-VACIAMADRID;FONDO;SUBURBANA;REGIONAL;RF;RESIDENCIAL;C. DE LES ESCOLES, 2-8
28133002;28;133;2;ES1808A;CCAA Madrid;SAN MARTIN DE VALDEIGLESIAS ;24/08/2006;;-4.39694;40.36889;707;MADRID;MADRID;SAN MARTÍN DE VALDEIGLESIAS;FONDO;RURAL;;UI;RESIDENCIAL/COMERCIAL/INDUSTRIAL;BARRIO ARRIAGAS
28079057;28;79;57;ES1944A;Ayto Madrid;SANCHINARRO;23/11/2009;;-3.66028;40.49417;615;MADRID;MADRID;MADRID;FONDO;URBANA;;UI;RESIDENCIAL/INDUSTRIAL;C/ RÍO EBRO
28148004;28;148;4;ES1752A;CCAA Madrid;TORREJON DE ARDOZ;01/01/2005;;-3.48417;40.455;581;MADRID;MADRID;TORREJÓN DE ARDOZ;FONDO;URBANA;;UT;RESIDENCIAL/COMERCIAL;PLAZA DE ESPAÑA. ESQUINA PRÓXIMA A TORRE DE MADRID
28079060;28;79;60;ES1947A;Ayto Madrid;TRES OLIVOS;14/01/2010;;-3.68972;40.50056;715;MADRID;MADRID;MADRID;FONDO;URBANA;;UT;RESIDENCIAL;C/OLIMPIADAS Nº 40
28079055;28;79;55;ES1942A;Ayto Madrid;URBANIZACION EMBAJADA;20/01/2010;;-3.58056;40.4625;619;MADRID;MADRID;MADRID;FONDO;URBANA;;SI;INDUSTRIAL;FASA
28161001;28;161;1;ES1809A;CCAA Madrid;VALDEMORO;27/07/2006;;-3.67972;40.18528;610;MADRID;MADRID;VALDEMORO;FONDO;SUBURBANA;;SI;RESIDENCIAL;TF-632
28171001;28;171;1;ES1810A;CCAA Madrid;VILLA DEL PRADO;14/06/2006;;-4.27472;40.25194;469;MADRID;MADRID;VILLA DEL PRADO;FONDO;RURAL;;SF;RESIDENCIAL;PARQUE SACRAMENTO
28180001;28;180;1;ES1811A;CCAA Madrid;VILLAREJO DE SALVANES;12/04/2006;;-3.27667;40.16722;761;MADRID;MADRID;VILLAREJO DE SALVANÉS;FONDO;RURAL;REGIONAL;RF;NATURALEZA;PARQUE DUNAR
28079017;28;79;17;ES0125A;Ayto Madrid;VILLAVERDE;01/01/1978;;-3.705;40.34694;593;MADRID;MADRID;MADRID;FONDO;URBANA;CERCA DE UNA CIUDAD;RI;AGRICOLA;CAMINO RURAL PARALELO A CARRETERA AL3106
30005002;30;5;2;ES1627A;CCAA Murcia;ALCANTARILLA;01/12/2001;;-1.23083;37.97556;80;MURCIA (REGIÓN DE);MURCIA;ALCANTARILLA;INDUSTRIAL;SUBURBANA;;SI;RESIDENCIAL;CARRETERA MAZAGON MATALASCAQAS(DEPURADORA DE AGUAS DE CONSUMO)
30016001;30;16;1;ES0651A;CCAA Murcia;ALUMBRES;01/03/1985;;-0.91333;37.60333;60;MURCIA (REGIÓN DE);MURCIA;CARTAGENA;INDUSTRIAL;SUBURBANA;;UT;RESIDENCIAL;PL. D'ESPANYA, S/N
30015001;30;15;1;ES1882A;CCAA Murcia;CARAVACA;01/11/2007;;-1.86861;38.11472;1;MURCIA (REGIÓN DE);MURCIA;CARAVACA DE LA CRUZ;FONDO;RURAL;;UT;RESIDENCIAL/COMERCIAL;BARRIO PINILLA
30016018;30;16;18;ES1423A;CCAA Murcia;LA ALJORRA;10/07/1995;;-1.06472;37.69361;80;MURCIA (REGIÓN DE);MURCIA;CARTAGENA;INDUSTRIAL;SUBURBANA;REGIONAL;RI;NATURALEZA;PARAXÓN
30024002;30;24;2;ES1569A;CCAA Murcia;LORCA;01/07/1998;;-1.70111;37.68889;340;MURCIA (REGIÓN DE);MURCIA;LORCA;INDUSTRIAL;SUBURBANA;;SI;INDUSTRIAL;TARAGUILLA
30016020;30;16;20;ES1921A;CCAA Murcia;MOMPEAN;03/08/2005;;-0.97528;37.60306;10;MURCIA (REGIÓN DE);MURCIA;CARTAGENA;FONDO;URBANA;;SI;RESIDENCIAL/INDUSTRIAL;"POLITÉCNICO ""LA RÁBIDA"""
30030007;30;30;7;ES1633A;CCAA Murcia;SAN BASILIO;21/05/2002;;-1.14472;37.99361;40;MURCIA (REGIÓN DE);MURCIA;MURCIA;TRAFICO;SUBURBANA;;UT;RESIDENCIAL/COMERCIAL;AV. RAMÓN Y CAJAL - C/ PRINCIPE DE VERGARA
30016021;30;16;21;ES2007A;CCAA Murcia;VALLE;31/12/2010;;-0.92667;37.57444;10;MURCIA (REGIÓN DE);MURCIA;CARTAGENA;INDUSTRIAL;SUBURBANA;;UI;RESIDENCIAL;C. N. LOS BARRIOS
31010001;31;10;1;ES1749A;CCAA Navarra;ALSASUA;01/07/2001;;-2.16583;42.89444;530;NAVARRA (COMUNIDAD FORAL);NAVARRA;ALTSASU/ALSASUA;FONDO;SUBURBANA;REGIONAL;RF;NATURALEZA;UNKNOWN
31107001;31;107;1;ES1662A;CCAA Navarra;CTCC-FUNES;01/01/2003;;-1.80833;42.30833;460;NAVARRA (COMUNIDAD FORAL);NAVARRA;FUNES;FONDO;RURAL;;SI;RESIDENCIAL/COMERCIAL/INDUSTRIAL;MEDINA Y GALNARES, 62
31232002;31;232;2;ES1661A;CCAA Navarra;CTCC-TUDELA;01/01/2003;;-1.62694;42.07472;383;NAVARRA (COMUNIDAD FORAL);NAVARRA;TUDELA;FONDO;RURAL;;UF;RESIDENCIAL/INDUSTRIAL;C/KOSME BIBANKO, 2
31201012;31;201;12;ES1472A;CCAA Navarra;ITURRAMA;13/06/1997;;-1.65139;42.80722;449;NAVARRA (COMUNIDAD FORAL);NAVARRA;PAMPLONA/IRUÑA;FONDO;URBANA;;SI;RESIDENCIAL/INDUSTRIAL;AYUNTAMIENTO. Bº TRIANO, S/N
31201013;31;201;13;ES1740A;CCAA Navarra;PLAZA DE LA CRUZ;01/04/2000;;-1.64;42.81222;455;NAVARRA (COMUNIDAD FORAL);NAVARRA;PAMPLONA/IRUÑA;TRAFICO;URBANA;CERCA DE UNA CIUDAD;RF;NATURALEZA;CASERIO ITURRARAN S/N (C.DE INF. DEL PARQUE NATURAL DE PAGOETA)
31201014;31;201;14;ES1747A;CCAA Navarra;ROTXAPEA;01/08/2002;;-1.64944;42.82694;418;NAVARRA (COMUNIDAD FORAL);NAVARRA;PAMPLONA/IRUÑA;FONDO;URBANA;;SF;RESIDENCIAL/INDUSTRIAL;CUARTEL DE LA ERTZANTZA
31216001;31;216;1;ES1755A;CCAA Navarra;SANGUESA;01/07/2001;;-1.2825;42.58056;397;NAVARRA (COMUNIDAD FORAL);NAVARRA;SANGÜESA/ZANGOZA;INDUSTRIAL;SUBURBANA;DESCONOCIDO;SI;RESIDENCIAL/INDUSTRIAL;PRAZA DO SANTUARIO. PASTORIZA (SANTA MARÍA)
1051001;1;51;1;ES1544A;CCAA País Vasco;AGURAIN;01/01/1998;;-2.47722;42.84917;594;PAÍS VASCO;ÁLAVA;SALVATIERRA O AGURAIN;FONDO;SUBURBANA;;UT;RESIDENCIAL/COMERCIAL/INDUSTRIAL;ESQ. AVDA DE TENERIFE, C/ DE LA ESTRELLA
1059008;1;59;8;ES1502A;CCAA País Vasco;AVENIDA GASTEIZ;01/01/1998;;-2.68056;42.85472;517;PAÍS VASCO;ÁLAVA;VITORIA-GASTEIZ;TRAFICO;URBANA;;UI;RESIDENCIAL/COMERCIAL/INDUSTRIAL;AVDA HERMANOS LA SALLE. (IES JOAQUÍN ARTILES)
1022001;1;22;1;ES1672A;CCAA País Vasco;EL CIEGO;10/05/2004;;-2.61944;42.51833;480;PAÍS VASCO;ÁLAVA;ELCIEGO;TRAFICO;SUBURBANA;;UF;PARQUE;PARQUE DE SAN JUAN S/N-TELDE
1036004;1;36;4;ES1349A;CCAA País Vasco;LLODIO;01/01/1994;;-2.96333;43.14444;122;PAÍS VASCO;ÁLAVA;LLODIO;TRAFICO;SUBURBANA;;UF;RESIDENCIAL;AVDA. PIERRE DE COUBERTAIN S/N
1059012;1;59;12;ES1673A;CCAA País Vasco;LOS HERRAN;23/05/2004;;-2.66139;42.84361;50;PAÍS VASCO;ÁLAVA;VITORIA-GASTEIZ;TRAFICO;URBANA;CERCA DE UNA CIUDAD;RI;INDUSTRIAL;BARRANC DEL TERME
1059009;1;59;9;ES1492A;CCAA País Vasco;TRES MARZO;01/01/1998;;-2.66806;42.85556;518;PAÍS VASCO;ÁLAVA;VITORIA-GASTEIZ;TRAFICO;URBANA;;SI;RESIDENCIAL/INDUSTRIAL;C. DE JOSEP PLA, 2
1055001;1;55;1;ES1489A;CCAA País Vasco;VALDEREJO;01/01/1998;;-3.23139;42.87528;911;PAÍS VASCO;ÁLAVA;VALDEGOVÍA;FONDO;RURAL;;SF;RESIDENCIAL;PL. DEL CASTELL, S/N
20055001;20;55;1;ES1442A;CCAA País Vasco;ARRASATE;01/01/1996;;-2.49;43.06417;218;PAÍS VASCO;GUIPÚZCOA;ARRASATE O MONDRAGÓN;TRAFICO;URBANA;;UT;RESIDENCIAL/COMERCIAL;AVENIDA PIO BAROJA S/N
20069002;20;69;2;ES1494A;CCAA País Vasco;ATEGORRIETA;01/01/1998;;-1.96028;43.32278;23;PAÍS VASCO;GUIPÚZCOA;DONOSTIA-SAN SEBASTIÁN;TRAFICO;URBANA;;UT;RESIDENCIAL/COMERCIAL;BULEVAR SUR S/N (PARKING CEMENTERIO DE VALENCIA) 
20069005;20;69;5;ES1697A;CCAA País Vasco;AVENIDA TOLOSA;24/02/2004;;-2.01111;43.30944;3;PAÍS VASCO;GUIPÚZCOA;DONOSTIA-SAN SEBASTIÁN;TRAFICO;URBANA;REGIONAL;SF;RESIDENCIAL;TRANSFORMADOR ELÉCTRICO
20018001;20;18;1;ES1501A;CCAA País Vasco;AZPEITIA;01/01/1998;;-2.26806;43.18;110;PAÍS VASCO;GUIPÚZCOA;AZPEITIA;TRAFICO;URBANA;;ST;DESCONOCIDO;PL. DE CATALUNYA, 1
20019001;20;19;1;ES1499A;CCAA País Vasco;BEASAIN;01/01/1998;;-2.19111;43.04833;153;PAÍS VASCO;GUIPÚZCOA;BEASAIN;TRAFICO;SUBURBANA;CERCA DE UNA CIUDAD;ST;RESIDENCIAL/INDUSTRIAL;C/ CAMP ROIG, 12
20040001;20;40;1;ES1497A;CCAA País Vasco;HERNANI;01/01/1998;;-1.9775;43.2675;18;PAÍS VASCO;GUIPÚZCOA;HERNANI;TRAFICO;URBANA;;SI;INDUSTRIAL;ESCOLA MARINADA
20016001;20;16;1;ES1599A;CCAA País Vasco;PAGOETA;11/05/2001;;-2.155;43.25056;225;PAÍS VASCO;GUIPÚZCOA;AIA;FONDO;RURAL;;UT;RESIDENCIAL/COMERCIAL;GRAN VIA - CRA. DE PRATS
20069004;20;69;4;ES1696A;CCAA País Vasco;PUYO;01/04/2004;;-1.98444;43.30278;88;PAÍS VASCO;GUIPÚZCOA;DONOSTIA-SAN SEBASTIÁN;FONDO;URBANA;;SI;RESIDENCIAL/INDUSTRIAL;C. 1 - C. 2
20071001;20;71;1;ES1498A;CCAA País Vasco;TOLOSA;01/01/1998;;-2.07778;43.13083;90;PAÍS VASCO;GUIPÚZCOA;TOLOSA;TRAFICO;URBANA;DESCONOCIDO;SF;RESIDENCIAL/AGRICOLA;C/FRANCISCO PANIAGUA LOAISA S/N
48002001;48;2;1;ES0588A;CCAA País Vasco;ABANTO;01/01/1984;;-3.07389;43.32056;136;PAÍS VASCO;VIZCAYA;ABANTO Y CIÉRVANA/ABANTO ZIERBENA;INDUSTRIAL;SUBURBANA;;UT;RESIDENCIAL/INDUSTRIAL;C/LAUBIDE ENPARANTZA S/Nº (ARRASATE-MONDRAGÓN)
48013006;48;13;6;ES1712A;CCAA País Vasco;BARAKALDO;01/04/2004;;-2.98722;43.29917;17;PAÍS VASCO;VIZCAYA;BARAKALDO;TRAFICO;URBANA;CERCA DE UNA CIUDAD;RI;RESIDENCIAL;C/ REAL (FINCA LA PERALINA)
48015002;48;15;2;ES0805A;CCAA País Vasco;BASAURI;01/04/1987;;-2.88417;43.24111;125;PAÍS VASCO;VIZCAYA;BASAURI;INDUSTRIAL;URBANA;;UT;RESIDENCIAL/COMERCIAL;PASEO DE ZORRILLA 191
48020006;48;20;6;ES0041A;CCAA País Vasco;DIRECCIÓN DE SALUD;01/01/1976;;-2.94472;43.26111;32;PAÍS VASCO;VIZCAYA;BILBAO;TRAFICO;URBANA;DESCONOCIDO;UT;RESIDENCIAL/COMERCIAL;C/DANIEL DEL OLMO GONZÁLEZ
48027001;48;27;1;ES1490A;CCAA País Vasco;DURANGO;01/01/1998;;-2.63583;43.17222;113;PAÍS VASCO;VIZCAYA;DURANGO;INDUSTRIAL;URBANA;;UF;RESIDENCIAL;C/ LA CIGÜEÑA (LOGROÑO)
48902006;48;902;6;ES0110A;CCAA País Vasco;ERANDIO;01/02/1977;;-2.97722;43.30278;4;PAÍS VASCO;VIZCAYA;ERANDIO;TRAFICO;URBANA;CERCA DE UNA CIUDAD;RF;RESIDENCIAL;C. DE JAUME BALMES, 53
48902009;48;902;9;ES0333A;CCAA País Vasco;ESCUELAS PÚBLICAS;01/01/1989;;-2.97361;43.30833;2;PAÍS VASCO;VIZCAYA;ERANDIO;INDUSTRIAL;URBANA;;UF;RESIDENCIAL/COMERCIAL;AVDA. DE VICENT SOS BAYNAT, S/N
48020062;48;20;62;ES1244A;CCAA País Vasco;MAZARREDO;01/07/1992;;-2.91833;43.2675;33;PAÍS VASCO;VIZCAYA;BILBAO;TRAFICO;URBANA;;UT;;AVDA. AL-NASIR
48068001;48;68;1;ES1491A;CCAA País Vasco;MUNDAKA;01/01/1998;;-2.70389;43.40611;116;PAÍS VASCO;VIZCAYA;MUNDAKA;FONDO;RURAL;;UF;RESIDENCIAL/INDUSTRIAL;RONDA DEL VALLE
48071002;48;71;2;ES0587A;CCAA País Vasco;MUSKIZ;01/03/1984;;-3.11306;43.32083;30;PAÍS VASCO;VIZCAYA;MUSKIZ;INDUSTRIAL;SUBURBANA;;UT;RESIDENCIAL/COMERCIAL/INDUSTRIAL;C/ TORCUATO FERNÁNDEZ MIRANDA - AVDA. CASTILLA
48020003;48;20;3;ES1713A;CCAA País Vasco;PARQUE EUROPA;01/04/2004;;-2.90222;43.255;76;PAÍS VASCO;VIZCAYA;BILBAO;FONDO;URBANA;;UT;DESCONOCIDO;PLAZA LAVADEROS
48904002;48;904;2;ES1595A;CCAA País Vasco;SANGRONIZ;31/03/2001;;-2.93028;43.29833;21;PAÍS VASCO;VIZCAYA;SONDIKA;TRAFICO;SUBURBANA;;UI;RESIDENCIAL/INDUSTRIAL;EIVISSA-DALT VILA
48096001;48;96;1;ES1598A;CCAA País Vasco;ZALLA;02/04/2001;;-3.13444;43.21306;62;PAÍS VASCO;VIZCAYA;ZALLA;FONDO;URBANA;;SI;INDUSTRIAL;C/ DE LA IGLESIA
26011001;26;11;1;ES1649A;CCAA La Rioja;ALFARO;01/02/2003;;-1.74333;42.17583;365;RIOJA (LA);RIOJA (LA);ALFARO;INDUSTRIAL;RURAL;;SI;DESCONOCIDO;UNKNOWN
26019001;26;19;1;ES1779A;CCAA La Rioja;ARRÚBAL;01/10/2004;;-2.25028;42.43889;336;RIOJA (LA);RIOJA (LA);ARRÚBAL;INDUSTRIAL;RURAL;;UT;RESIDENCIAL;TRASERA C/ CAÑADA REAL, 3
26066001;26;66;1;ES1746A;CCAA La Rioja;GALILEA;01/09/2004;;-2.23167;42.34167;584;RIOJA (LA);RIOJA (LA);GALILEA;INDUSTRIAL;RURAL;REMOTA;RFREM;NATURALEZA;INSTALACIONES DEL CANAL DE ISABEL II 
26089001;26;89;1;ES1602A;CCAA La Rioja;LA CIGÜEÑA;30/06/2001;;-2.42778;42.46389;386;RIOJA (LA);RIOJA (LA);LOGROÑO;FONDO;URBANA;REGIONAL;RF;RESIDENCIAL;CAMINO DE CHOZAS, S/N
26117001;26;117;1;ES1753A;CCAA La Rioja;PRADEJÓN;01/09/2004;;-2.05972;42.34;402;RIOJA (LA);RIOJA (LA);PRADEJÓN;INDUSTRIAL;RURAL;REGIONAL;RI;RESIDENCIAL/INDUSTRIAL;ECONOMATO
